{
"type": "FeatureCollection",
"name": "ucutest3",
"crs": { "type": "name", "properties": { "name": "urn:ogc:def:crs:OGC:1.3:CRS84" } },
"features": [
{ "type": "Feature", "properties": { "id": null, "Classroom": null, "elevator": "elevator2", "toilet": null }, "geometry": { "type": "MultiPolygon", "coordinates": [ [ [ [ -75.683830779174031, 45.422776686612146 ], [ -75.68379766668339, 45.422791743940486 ], [ -75.683776213520431, 45.42276752127988 ], [ -75.683808859637978, 45.422753118611894 ], [ -75.683830779174031, 45.422776686612146 ] ] ] ] } },
{ "type": "Feature", "properties": { "id": null, "Classroom": null, "elevator": "elevator1", "toilet": null }, "geometry": { "type": "MultiPolygon", "coordinates": [ [ [ [ -75.683808393264854, 45.422752300278368 ], [ -75.683775747147308, 45.422766702946575 ], [ -75.683755226730568, 45.422744444275978 ], [ -75.683787173288465, 45.422729468768409 ], [ -75.683808393264854, 45.422752300278368 ] ] ] ] } },
{ "type": "Feature", "properties": { "id": null, "Classroom": null, "elevator": null, "toilet": "toilet" }, "geometry": { "type": "MultiPolygon", "coordinates": [ [ [ [ -75.683596710919645, 45.422584225448752 ], [ -75.683570796985805, 45.42259571277814 ], [ -75.683553066399483, 45.422577387751581 ], [ -75.68357956485815, 45.422565626910512 ], [ -75.683596710919645, 45.422584225448752 ] ] ] ] } },
{ "type": "Feature", "properties": { "id": null, "Classroom": "Classroom 014", "elevator": null, "toilet": null }, "geometry": { "type": "MultiPolygon", "coordinates": [ [ [ [ -75.683994187799669, 45.422424701757969 ], [ -75.683888973331435, 45.422471745225018 ], [ -75.683791552527509, 45.422454787700715 ], [ -75.683728423846574, 45.422377658251747 ], [ -75.683745569908069, 45.422322956451026 ], [ -75.683866371704937, 45.422270989691242 ], [ -75.683944308348075, 45.422286853233501 ], [ -75.684017568792626, 45.422368358949356 ], [ -75.683994187799669, 45.422424701757969 ] ] ] ] } },
{ "type": "Feature", "properties": { "id": null, "Classroom": null, "elevator": null, "toilet": "Wemen Toilet" }, "geometry": { "type": "MultiPolygon", "coordinates": [ [ [ [ -75.683614246664376, 45.42259208879949 ], [ -75.683595541870019, 45.422600294033863 ], [ -75.683585410106403, 45.422589900736789 ], [ -75.683597100602881, 45.422584977595399 ], [ -75.68357917517497, 45.422565832041485 ], [ -75.683557352914875, 45.422576772358802 ], [ -75.683502017898249, 45.422517694620083 ], [ -75.683537868754087, 45.422501831142689 ], [ -75.683616584763683, 45.42258278953242 ], [ -75.683614246664376, 45.42259208879949 ] ] ] ] } },
{ "type": "Feature", "properties": { "id": null, "Classroom": null, "elevator": null, "toilet": "Men toilet" }, "geometry": { "type": "MultiPolygon", "coordinates": [ [ [ [ -75.683570602144229, 45.422594823877745 ], [ -75.683579564858178, 45.422592362307313 ], [ -75.683589696621794, 45.422603576127273 ], [ -75.683564756895976, 45.422613969421825 ], [ -75.683541765586256, 45.422590174244625 ], [ -75.683521112375814, 45.422600020526069 ], [ -75.683460711477409, 45.42253547264982 ], [ -75.683498121066094, 45.422518788652845 ], [ -75.683546441784841, 45.422569934660721 ], [ -75.683570602144229, 45.422594823877745 ] ] ] ] } },
{ "type": "Feature", "properties": { "id": null, "Classroom": "Classroom 020", "elevator": null, "toilet": null }, "geometry": { "type": "MultiPolygon", "coordinates": [ [ [ [ -75.683414144333071, 45.42315373433938 ], [ -75.683430900711357, 45.423171375416317 ], [ -75.683387840716009, 45.423190110507477 ], [ -75.683384333567076, 45.42319188828953 ], [ -75.68334877497368, 45.423153460834271 ], [ -75.683394075647513, 45.42313253768927 ], [ -75.683414144333071, 45.42315373433938 ] ] ] ] } },
{ "type": "Feature", "properties": { "id": null, "Classroom": null, "elevator": "elevator 3", "toilet": null }, "geometry": { "type": "MultiPolygon", "coordinates": [ [ [ [ -75.683828377591411, 45.423491238637951 ], [ -75.683795059676456, 45.423506691582247 ], [ -75.683772652891548, 45.42348385404361 ], [ -75.683807529539365, 45.423467443830503 ], [ -75.683828377591411, 45.423491238637951 ] ] ] ] } }
]
}
