{
"type": "FeatureCollection",
"name": "pointaccessible",
"crs": { "type": "name", "properties": { "name": "urn:ogc:def:crs:EPSG::3857" } },
"features": [
{
     "type": "Feature",
 "properties": { "fid": 1, "type": "elevator", "floor": "0" }, 
"geometry": { "type": "Point", "coordinates": [ -8425082.308027528226376, 5688326.910468221642077 ] } },
{
     "type": "Feature", 
"properties": { "fid": 2, "type": "toilet", "floor": "0" },
 "geometry": { "type": "Point", "coordinates": [ -8425056.489944372326136, 5688295.380419764667749 ] } },
{ 
    "type": "Feature", 
"properties": { "fid": 3, "type": "elevator", "floor": "0" },
 "geometry": { "type": "Point", "coordinates": [ -8425082.155708452686667, 5688439.778902552090585 ] } },
{ 
    "type": "Feature", 
"properties": { "fid": 4, "type": "elevator", "floor": "0" },
 "geometry": { "type": "Point", "coordinates": [ -8425028.37535236030817, 5688386.400506583973765 ] } },
{ 
    "type": "Feature", 
"properties": { "fid": 5, "type": "elevator", "floor": "0" },
 "geometry": { "type": "Point", "coordinates": [ -8425058.696120388805866, 5688297.646323148161173 ] } },
{
     "type": "Feature", "properties": { "fid": 6, "type": "elevator", "floor": "0" }, "geometry": { "type": "Point", "coordinates": [ -8425095.068774688988924, 5688414.267807200551033 ] } }

]
}
