{
"type": "FeatureCollection",
"name": "UCU_floor1",
"crs": { "type": "name", "properties": { "name": "urn:ogc:def:crs:EPSG::3857" } },
"features": [
{ "type": "Feature", "properties": { "fid": 1, "Classroom": "100G", "elevator": null, "toilet": null }, "geometry": { "type": "MultiPolygon", "coordinates": [ [ [ [ -8425103.052948074415326, 5688271.425249325111508 ], [ -8425103.534870434552431, 5688271.183749113231897 ], [ -8425106.353133838623762, 5688261.928449449129403 ], [ -8425098.463232690468431, 5688248.056851454079151 ], [ -8425089.090316923335195, 5688246.074119272641838 ], [ -8425075.954964445903897, 5688254.209363738074899 ], [ -8425074.042270639911294, 5688262.816485857591033 ], [ -8425081.814940627664328, 5688276.501076327636838 ], [ -8425083.256927669048309, 5688276.771448898129165 ], [ -8425090.647111255675554, 5688278.664056889712811 ], [ -8425103.052948074415326, 5688271.425249325111508 ] ] ] ] } },
{ "type": "Feature", "properties": { "fid": 2, "Classroom": "106C", "elevator": null, "toilet": null }, "geometry": { "type": "MultiPolygon", "coordinates": [ [ [ [ -8425095.835328416898847, 5688281.53400728199631 ], [ -8425093.247511381283402, 5688277.089050962589681 ], [ -8425090.659694343805313, 5688278.641741183586419 ], [ -8425093.399735912680626, 5688282.934472971595824 ], [ -8425095.835328416898847, 5688281.53400728199631 ] ] ] ] } },
{ "type": "Feature", "properties": { "fid": 3, "Classroom": "106B", "elevator": null, "toilet": null }, "geometry": { "type": "MultiPolygon", "coordinates": [ [ [ [ -8425088.802555060014129, 5688281.9602359700948 ], [ -8425086.032068587839603, 5688283.54337109811604 ], [ -8425087.554313901811838, 5688286.192077945917845 ], [ -8425090.294355468824506, 5688284.487163193523884 ], [ -8425088.802555060014129, 5688281.9602359700948 ] ] ] ] } },
{ "type": "Feature", "properties": { "fid": 4, "Classroom": "106A", "elevator": null, "toilet": null }, "geometry": { "type": "MultiPolygon", "coordinates": [ [ [ [ -8425096.004319822415709, 5688288.089882273226976 ], [ -8425091.071824377402663, 5688290.912625518627465 ], [ -8425088.041432403028011, 5688285.918073789216578 ], [ -8425092.89007624052465, 5688282.915298650041223 ], [ -8425096.004319822415709, 5688288.089882273226976 ] ] ] ] } },
{ "type": "Feature", "properties": { "fid": 5, "Classroom": "106", "elevator": null, "toilet": null }, "geometry": { "type": "MultiPolygon", "coordinates": [ [ [ [ -8425090.598804531618953, 5688290.119470858946443 ], [ -8425088.041432403028011, 5688285.826739070937037 ], [ -8425083.89774277806282, 5688288.151261564344168 ], [ -8425086.458297275006771, 5688292.389294037595391 ], [ -8425090.598804531618953, 5688290.119470858946443 ] ] ] ] } },
{ "type": "Feature", "properties": { "fid": 6, "Classroom": "104B", "elevator": null, "toilet": null }, "geometry": { "type": "MultiPolygon", "coordinates": [ [ [ [ -8425098.437222046777606, 5688292.049051219597459 ], [ -8425095.966917011886835, 5688288.010401303879917 ], [ -8425091.025996631011367, 5688290.92487657815218 ], [ -8425093.607434697449207, 5688294.838669775985181 ], [ -8425098.437222046777606, 5688292.049051219597459 ] ] ] ] } },
{ "type": "Feature", "properties": { "fid": 7, "Classroom": "105", "elevator": null, "toilet": null }, "geometry": { "type": "MultiPolygon", "coordinates": [ [ [ [ -8425093.568741561844945, 5688294.76892545633018 ], [ -8425090.571561805903912, 5688290.099114421755075 ], [ -8425086.446025867015123, 5688292.382140003144741 ], [ -8425089.360552717000246, 5688297.33683564607054 ], [ -8425093.568741561844945, 5688294.76892545633018 ] ] ] ] } },
{ "type": "Feature", "properties": { "fid": 8, "Classroom": "104", "elevator": null, "toilet": null }, "geometry": { "type": "MultiPolygon", "coordinates": [ [ [ [ -8425094.023795675486326, 5688304.956241552717984 ], [ -8425089.360552717000246, 5688297.33683564607054 ], [ -8425098.312313754111528, 5688291.88250682875514 ], [ -8425102.816412150859833, 5688299.570778249762952 ], [ -8425094.023795675486326, 5688304.956241552717984 ] ] ] ] } },
{ "type": "Feature", "properties": { "fid": 9, "Classroom": "104A", "elevator": null, "toilet": null }, "geometry": { "type": "MultiPolygon", "coordinates": [ [ [ [ -8425100.061029862612486, 5688306.330232781358063 ], [ -8425100.192176520824432, 5688306.24691750202328 ], [ -8425097.771044481545687, 5688302.624620072543621 ], [ -8425102.892284516245127, 5688299.543548832647502 ], [ -8425103.51991849578917, 5688300.512974245473742 ], [ -8425104.240174992009997, 5688301.752485424280167 ], [ -8425105.132019443437457, 5688303.307547789998353 ], [ -8425100.061029862612486, 5688306.330232781358063 ] ] ] ] } },
{ "type": "Feature", "properties": { "fid": 10, "Classroom": "103", "elevator": null, "toilet": null }, "geometry": { "type": "MultiPolygon", "coordinates": [ [ [ [ -8425088.569466859102249, 5688308.328765476122499 ], [ -8425087.237111726775765, 5688306.205324485898018 ], [ -8425092.899621034041047, 5688303.082617147825658 ], [ -8425096.188872763887048, 5688308.578582063317299 ], [ -8425084.947126345708966, 5688315.573446501977742 ], [ -8425082.740413159132004, 5688311.742925499565899 ], [ -8425088.569466859102249, 5688308.328765476122499 ] ] ] ] } },
{ "type": "Feature", "properties": { "fid": 11, "Classroom": "102B", "elevator": null, "toilet": null }, "geometry": { "type": "MultiPolygon", "coordinates": [ [ [ [ -8425096.188872763887048, 5688308.62021816149354 ], [ -8425093.815615186467767, 5688304.789697159081697 ], [ -8425097.895952776074409, 5688302.582983973436058 ], [ -8425100.185938157141209, 5688306.246960584074259 ], [ -8425105.12793299742043, 5688303.314437010325491 ], [ -8425107.513891378417611, 5688307.412771323695779 ], [ -8425092.774712741374969, 5688316.156351871788502 ], [ -8425094.773245437070727, 5688319.154150916263461 ], [ -8425094.107067871838808, 5688320.777958732098341 ], [ -8425089.735277598723769, 5688323.234488504938781 ], [ -8425084.905490247532725, 5688315.406902110204101 ], [ -8425096.188872763887048, 5688308.62021816149354 ] ] ] ] } },
{ "type": "Feature", "properties": { "fid": 12, "Classroom": "102C", "elevator": null, "toilet": null }, "geometry": { "type": "MultiPolygon", "coordinates": [ [ [ [ -8425110.428418228402734, 5688312.284194771200418 ], [ -8425107.472954148426652, 5688307.393098792992532 ], [ -8425102.55919573456049, 5688310.16075378190726 ], [ -8425105.580187076702714, 5688315.148418734781444 ], [ -8425110.428418228402734, 5688312.284194771200418 ] ] ] ] } },
{ "type": "Feature", "properties": { "fid": 13, "Classroom": "102D", "elevator": null, "toilet": null }, "geometry": { "type": "MultiPolygon", "coordinates": [ [ [ [ -8425105.640266975387931, 5688315.240357718430459 ], [ -8425102.600831832736731, 5688310.24402597732842 ], [ -8425099.145035712048411, 5688312.284194771200418 ], [ -8425102.142834756523371, 5688317.23889041505754 ], [ -8425105.640266975387931, 5688315.240357718430459 ] ] ] ] } },
{ "type": "Feature", "properties": { "fid": 14, "Classroom": "102A", "elevator": null, "toilet": null }, "geometry": { "type": "MultiPolygon", "coordinates": [ [ [ [ -8425098.687038635835052, 5688325.940834864974022 ], [ -8425096.313781058415771, 5688322.235222157090902 ], [ -8425097.396319601684809, 5688321.360864101909101 ], [ -8425098.645402537658811, 5688319.362331405282021 ], [ -8425100.394118646159768, 5688318.27979286108166 ], [ -8425103.374633291736245, 5688323.238746616058052 ], [ -8425098.687038635835052, 5688325.940834864974022 ] ] ] ] } },
{ "type": "Feature", "properties": { "fid": 15, "Classroom": "102E", "elevator": null, "toilet": null }, "geometry": { "type": "MultiPolygon", "coordinates": [ [ [ [ -8425083.091897940263152, 5688330.021199004724622 ], [ -8425081.79570291750133, 5688327.930025524459779 ], [ -8425094.023795677348971, 5688320.611414341256022 ], [ -8425094.64833714440465, 5688319.154150916263461 ], [ -8425092.816571965813637, 5688316.149240260012448 ], [ -8425099.145035712048411, 5688312.325830869376659 ], [ -8425102.059562562033534, 5688317.155618219636381 ], [ -8425098.478123025968671, 5688319.549520925618708 ], [ -8425097.389363206923008, 5688321.308286787010729 ], [ -8425096.355417156592011, 5688322.193586058914661 ], [ -8425083.091897940263152, 5688330.021199004724622 ] ] ] ] } },
{ "type": "Feature", "properties": { "fid": 16, "Classroom": "102", "elevator": null, "toilet": null }, "geometry": { "type": "MultiPolygon", "coordinates": [ [ [ [ -8425086.745348760858178, 5688339.153538511134684 ], [ -8425083.58311870880425, 5688334.519278151914477 ], [ -8425085.00510730035603, 5688333.515521500259638 ], [ -8425083.099636381492019, 5688329.968569391407073 ], [ -8425096.381016021594405, 5688322.223259164951742 ], [ -8425098.639364121481776, 5688325.953741940669715 ], [ -8425103.399740293622017, 5688323.21363961417228 ], [ -8425105.984017923474312, 5688327.359397849999368 ], [ -8425086.745348760858178, 5688339.153538511134684 ] ] ] ] } },
{ "type": "Feature", "properties": { "fid": 17, "Classroom": "101A", "elevator": null, "toilet": null }, "geometry": { "type": "MultiPolygon", "coordinates": [ [ [ [ -8425082.328422892838717, 5688341.545574716292322 ], [ -8425079.554549388587475, 5688336.906922818161547 ], [ -8425073.881035730242729, 5688340.275849774479866 ], [ -8425076.807761305943131, 5688344.72413744777441 ], [ -8425082.328422892838717, 5688341.545574716292322 ] ] ] ] } },
{ "type": "Feature", "properties": { "fid": 18, "Classroom": "101", "elevator": null, "toilet": null }, "geometry": { "type": "MultiPolygon", "coordinates": [ [ [ [ -8425079.55155068449676, 5688336.911731827072799 ], [ -8425077.225993245840073, 5688333.013643174432218 ], [ -8425074.780882693827152, 5688334.52373906224966 ], [ -8425077.087425012141466, 5688338.388657282106578 ], [ -8425079.55155068449676, 5688336.911731827072799 ] ] ] ] } },
{ "type": "Feature", "properties": { "fid": 19, "Classroom": "101B", "elevator": null, "toilet": null }, "geometry": { "type": "MultiPolygon", "coordinates": [ [ [ [ -8425074.140153527259827, 5688333.431208615191281 ], [ -8425071.110851546749473, 5688335.38440849352628 ], [ -8425073.881035730242729, 5688340.275849774479866 ], [ -8425077.075450621545315, 5688338.400512287393212 ], [ -8425074.140153527259827, 5688333.431208615191281 ] ] ] ] } },
{ "type": "Feature", "properties": { "fid": 20, "Classroom": null, "elevator": null, "toilet": "122_123" }, "geometry": { "type": "MultiPolygon", "coordinates": [ [ [ [ -8425066.452327953651547, 5688344.257803133688867 ], [ -8425060.545617895200849, 5688335.364799120463431 ], [ -8425054.707598591223359, 5688339.040258385241032 ], [ -8425054.40144963376224, 5688340.165508079342544 ], [ -8425059.576605446636677, 5688348.739164055325091 ], [ -8425066.452327953651547, 5688344.257803133688867 ] ] ] ] } },
{ "type": "Feature", "properties": { "fid": 21, "Classroom": null, "elevator": "4", "toilet": null }, "geometry": { "type": "MultiPolygon", "coordinates": [ [ [ [ -8425062.085997076705098, 5688329.333202116191387 ], [ -8425058.656495181843638, 5688323.6452477555722 ], [ -8425053.972297472879291, 5688326.321932160295546 ], [ -8425057.150860205292702, 5688332.09353290963918 ], [ -8425062.085997076705098, 5688329.333202116191387 ] ] ] ] } },
{ "type": "Feature", "properties": { "fid": 22, "Classroom": null, "elevator": null, "toilet": "108_109" }, "geometry": { "type": "MultiPolygon", "coordinates": [ [ [ [ -8425080.990080690011382, 5688309.676301014609635 ], [ -8425076.138590205460787, 5688301.311662248335779 ], [ -8425069.614171966910362, 5688305.410335243679583 ], [ -8425074.549308840185404, 5688313.691327623091638 ], [ -8425080.990080690011382, 5688309.676301014609635 ] ] ] ] } },
{ "type": "Feature", "properties": { "fid": 23, "Classroom": "100E", "elevator": null, "toilet": null }, "geometry": { "type": "MultiPolygon", "coordinates": [ [ [ [ -8425086.510742273181677, 5688317.957293392159045 ], [ -8425085.00510729663074, 5688315.531548149883747 ], [ -8425077.21988109126687, 5688320.245858904905617 ], [ -8425077.408446758985519, 5688320.622990239411592 ], [ -8425077.738436676561832, 5688321.110118213109672 ], [ -8425080.488202361389995, 5688319.462928370572627 ], [ -8425081.363931758329272, 5688320.959249182604253 ], [ -8425086.510742273181677, 5688317.957293392159045 ] ] ] ] } },
{ "type": "Feature", "properties": { "fid": 24, "Classroom": null, "elevator": "1", "toilet": null }, "geometry": { "type": "MultiPolygon", "coordinates": [ [ [ [ -8425082.375737959519029, 5688322.939745336771011 ], [ -8425080.506792740896344, 5688319.769635722972453 ], [ -8425077.147422851994634, 5688321.733211080543697 ], [ -8425079.040025604888797, 5688324.926978227682412 ], [ -8425082.375737959519029, 5688322.939745336771011 ] ] ] ] } },
{ "type": "Feature", "properties": { "fid": 25, "Classroom": null, "elevator": "2", "toilet": null }, "geometry": { "type": "MultiPolygon", "coordinates": [ [ [ [ -8425084.32524842210114, 5688326.437685009092093 ], [ -8425082.470368096604943, 5688323.270950818434358 ], [ -8425079.158313278108835, 5688325.210868640802801 ], [ -8425081.145546169951558, 5688328.357320720329881 ], [ -8425084.32524842210114, 5688326.437685009092093 ] ] ] ] } },
{ "type": "Feature", "properties": { "fid": 26, "Classroom": null, "elevator": "5", "toilet": null }, "geometry": { "type": "MultiPolygon", "coordinates": [ [ [ [ -8425080.827874585986137, 5688437.682146557606757 ], [ -8425078.345114281401038, 5688433.660074861720204 ], [ -8425074.372697791084647, 5688436.142835167236626 ], [ -8425077.088535580784082, 5688439.824462935328484 ], [ -8425080.827874585986137, 5688437.682146557606757 ] ] ] ] } },
{ "type": "Feature", "properties": { "fid": 27, "Classroom": null, "elevator": "3", "toilet": null }, "geometry": { "type": "MultiPolygon", "coordinates": [ [ [ [ -8425053.286597348749638, 5688454.667296347208321 ], [ -8425051.241000562906265, 5688451.24264554772526 ], [ -8425047.379649326205254, 5688453.541068903170526 ], [ -8425049.586135746911168, 5688456.873782768845558 ], [ -8425053.286597348749638, 5688454.667296347208321 ] ] ] ] } },
{ "type": "Feature", "properties": { "fid": 28, "Classroom": "Dinning_hall", "elevator": null, "toilet": null }, "geometry": { "type": "MultiPolygon", "coordinates": [ [ [ [ -8425014.358994664624333, 5688345.044584010727704 ], [ -8424994.783046523109078, 5688356.90309105720371 ], [ -8425005.283257702365518, 5688374.768904131837189 ], [ -8425013.50299683585763, 5688370.088219347409904 ], [ -8425015.101279444992542, 5688369.174914999864995 ], [ -8425020.947054134681821, 5688378.737802444957197 ], [ -8425011.333899008110166, 5688384.358599787577987 ], [ -8425022.407714229077101, 5688403.309665011242032 ], [ -8425042.157920757308602, 5688391.550871528685093 ], [ -8425045.01199684664607, 5688396.57404544390738 ], [ -8425053.491909302771091, 5688391.66085797175765 ], [ -8425056.231822345405817, 5688395.770727538503706 ], [ -8425065.87337838113308, 5688390.236067960038781 ], [ -8425059.387245249003172, 5688378.759262887760997 ], [ -8425054.836486218497157, 5688370.632907475344837 ], [ -8425063.863555828109384, 5688365.185222962871194 ], [ -8425061.263014618307352, 5688360.871351048350334 ], [ -8425065.684642476961017, 5688358.122867174446583 ], [ -8425054.387424467131495, 5688340.158555353991687 ], [ -8425054.706344017758965, 5688339.035884024575353 ], [ -8425067.816391509026289, 5688330.739083445630968 ], [ -8425068.429349675774574, 5688328.823364879004657 ], [ -8425070.803247395902872, 5688326.866813746280968 ], [ -8425071.423308908939362, 5688327.717617128044367 ], [ -8425072.16763162612915, 5688327.946639502421021 ], [ -8425073.942555025219917, 5688326.572505257092416 ], [ -8425074.343344179913402, 5688325.599160166457295 ], [ -8425072.797443153336644, 5688322.793636082671583 ], [ -8425074.97282381914556, 5688321.505173715762794 ], [ -8425073.751677757129073, 5688319.422042199410498 ], [ -8425077.900354009121656, 5688316.673320996575058 ], [ -8425075.57485263235867, 5688313.083319332450628 ], [ -8425074.422165619209409, 5688313.568661231547594 ], [ -8425069.508078876882792, 5688305.257181186228991 ], [ -8425076.218831952661276, 5688301.398373779840767 ], [ -8425067.136760288849473, 5688285.854058817960322 ], [ -8425050.215738333761692, 5688295.853681865148246 ], [ -8425061.742608468979597, 5688314.418009558692575 ], [ -8425013.315022993832827, 5688343.116191564127803 ], [ -8425014.358994664624333, 5688345.044584010727704 ] ] ] ] } }
]
}
