{
"type": "FeatureCollection",
"name": "ucu_level2",
"crs": { "type": "name", "properties": { "name": "urn:ogc:def:crs:EPSG::3857" } },
"features": [
{ "type": "Feature", "properties": { "fid": 1, "room_name": "207", "type": "piece", "level": 2, "notes": null }, "geometry": { "type": "MultiPolygon", "coordinates": [ [ [ [ -8425071.117805011570454, 5688269.825175753794611 ], [ -8425066.884852921590209, 5688272.370867219753563 ], [ -8425062.03027849830687, 5688264.112170487642288 ], [ -8425066.233629522845149, 5688261.507276893593371 ], [ -8425066.233629522845149, 5688261.507276893593371 ], [ -8425071.117805011570454, 5688269.825175753794611 ] ] ] ] } },
{ "type": "Feature", "properties": { "fid": 2, "room_name": "206", "type": "piece", "level": 2, "notes": null }, "geometry": { "type": "MultiPolygon", "coordinates": [ [ [ [ -8425066.608192633837461, 5688272.47186016663909 ], [ -8425062.378340983763337, 5688275.014523798599839 ], [ -8425057.483119413256645, 5688266.768689403310418 ], [ -8425061.784260695800185, 5688264.178499349392951 ], [ -8425066.608192633837461, 5688272.47186016663909 ] ] ] ] } },
{ "type": "Feature", "properties": { "fid": 3, "room_name": "204", "type": "piece", "level": 2, "notes": null }, "geometry": { "type": "MultiPolygon", "coordinates": [ [ [ [ -8425052.009349698200822, 5688280.801248086616397 ], [ -8425047.784997519105673, 5688283.286161132156849 ], [ -8425044.968762734904885, 5688278.564826343208551 ], [ -8425044.554610557854176, 5688278.813317649066448 ], [ -8425043.042955121025443, 5688276.349112211726606 ], [ -8425047.743582298979163, 5688273.532877423800528 ], [ -8425052.009349698200822, 5688280.801248086616397 ] ] ] ] } },
{ "type": "Feature", "properties": { "fid": 4, "room_name": "205", "type": "piece", "level": 2, "notes": null }, "geometry": { "type": "MultiPolygon", "coordinates": [ [ [ [ -8425079.09966710396111, 5688285.193505548872054 ], [ -8425062.22520238161087, 5688295.187838343903422 ], [ -8425056.842187533155084, 5688286.036713103763759 ], [ -8425073.844003941863775, 5688276.005027464590967 ], [ -8425079.09966710396111, 5688285.193505548872054 ] ] ] ] } },
{ "type": "Feature", "properties": { "fid": 5, "room_name": "211G", "type": "piece", "level": 2, "notes": null }, "geometry": { "type": "MultiPolygon", "coordinates": [ [ [ [ -8425081.512115217745304, 5688289.168928773142397 ], [ -8425074.85266406275332, 5688293.169224083423615 ], [ -8425072.632847011089325, 5688289.261421148665249 ], [ -8425079.315421260893345, 5688285.376741306856275 ], [ -8425081.512115217745304, 5688289.168928773142397 ] ] ] ] } },
{ "type": "Feature", "properties": { "fid": 6, "room_name": "211C", "type": "piece", "level": 2, "notes": null }, "geometry": { "type": "MultiPolygon", "coordinates": [ [ [ [ -8425074.6214331202209, 5688293.28483955655247 ], [ -8425071.96227727457881, 5688294.88033306133002 ], [ -8425069.696214035153389, 5688291.134391786530614 ], [ -8425072.494108444079757, 5688289.469528995454311 ], [ -8425074.6214331202209, 5688293.28483955655247 ] ] ] ] } },
{ "type": "Feature", "properties": { "fid": 7, "room_name": "211B", "type": "piece", "level": 2, "notes": null }, "geometry": { "type": "MultiPolygon", "coordinates": [ [ [ [ -8425071.677386155351996, 5688295.056878031231463 ], [ -8425064.49910493940115, 5688299.213644283823669 ], [ -8425062.263533174991608, 5688295.476047737523913 ], [ -8425069.511676007881761, 5688291.144627442583442 ], [ -8425071.677386155351996, 5688295.056878031231463 ] ] ] ] } },
{ "type": "Feature", "properties": { "fid": 8, "room_name": "203", "type": "piece", "level": 2, "notes": null }, "geometry": { "type": "MultiPolygon", "coordinates": [ [ [ [ -8425062.760080013424158, 5688300.194746327586472 ], [ -8425059.124661341309547, 5688302.338711185380816 ], [ -8425051.389915678650141, 5688289.237068087793887 ], [ -8425055.104483067989349, 5688287.020119932480156 ], [ -8425062.760080013424158, 5688300.194746327586472 ] ] ] ] } },
{ "type": "Feature", "properties": { "fid": 9, "room_name": "211F", "type": "piece", "level": 2, "notes": null }, "geometry": { "type": "MultiPolygon", "coordinates": [ [ [ [ -8425073.916434794664383, 5688319.133097466081381 ], [ -8425070.260237947106361, 5688321.313986813649535 ], [ -8425065.802243545651436, 5688313.809161706827581 ], [ -8425069.522584196180105, 5688311.59620045684278 ], [ -8425073.916434794664383, 5688319.133097466081381 ] ] ] ] } },
{ "type": "Feature", "properties": { "fid": 10, "room_name": "211J", "type": "piece", "level": 2, "notes": null }, "geometry": { "type": "MultiPolygon", "coordinates": [ [ [ [ -8425069.362224685028195, 5688311.403769043274224 ], [ -8425065.770171644166112, 5688313.584658390842378 ], [ -8425059.291647406294942, 5688302.583995948545635 ], [ -8425062.947844251990318, 5688300.338962798006833 ], [ -8425069.362224685028195, 5688311.403769043274224 ] ] ] ] } },
{ "type": "Feature", "properties": { "fid": 11, "room_name": "215E", "type": "piece", "level": 2, "notes": null }, "geometry": { "type": "MultiPolygon", "coordinates": [ [ [ [ -8425116.612857714295387, 5688282.247080579400063 ], [ -8425108.44335256703198, 5688287.118526241742074 ], [ -8425105.931986168026924, 5688282.821971682831645 ], [ -8425114.192263597622514, 5688277.920268592424691 ], [ -8425116.612857714295387, 5688282.247080579400063 ] ] ] ] } },
{ "type": "Feature", "properties": { "fid": 12, "room_name": "215D", "type": "piece", "level": 2, "notes": null }, "geometry": { "type": "MultiPolygon", "coordinates": [ [ [ [ -8425114.139522194862366, 5688277.80099649168551 ], [ -8425104.047524109482765, 5688283.644915204495192 ], [ -8425101.350330855697393, 5688279.194546339102089 ], [ -8425111.481390235945582, 5688273.29255732987076 ], [ -8425114.139522194862366, 5688277.80099649168551 ] ] ] ] } },
{ "type": "Feature", "properties": { "fid": 13, "room_name": "215D1", "type": "piece", "level": 2, "notes": null }, "geometry": { "type": "MultiPolygon", "coordinates": [ [ [ [ -8425103.704135902225971, 5688283.6156035521999 ], [ -8425100.123241819441319, 5688285.74175941478461 ], [ -8425096.925431668758392, 5688280.292384623549879 ], [ -8425100.53567654825747, 5688278.203659852966666 ], [ -8425103.704135902225971, 5688283.6156035521999 ] ] ] ] } },
{ "type": "Feature", "properties": { "fid": 14, "room_name": "215F", "type": "piece", "level": 2, "notes": null }, "geometry": { "type": "MultiPolygon", "coordinates": [ [ [ [ -8425110.168472785502672, 5688293.02780616749078 ], [ -8425113.509104907512665, 5688298.513798371888697 ], [ -8425109.187736749649048, 5688301.026934464462101 ], [ -8425105.877752626314759, 5688295.540942260064185 ], [ -8425110.168472785502672, 5688293.02780616749078 ] ] ] ] } },
{ "type": "Feature", "properties": { "fid": 15, "room_name": "215A", "type": "piece", "level": 2, "notes": null }, "geometry": { "type": "MultiPolygon", "coordinates": [ [ [ [ -8425102.860148658975959, 5688302.455307108350098 ], [ -8425098.740387571975589, 5688304.91331582237035 ], [ -8425096.386238383129239, 5688300.862794417887926 ], [ -8425100.540619308128953, 5688298.439405543729663 ], [ -8425102.860148658975959, 5688302.455307108350098 ] ] ] ] } },
{ "type": "Feature", "properties": { "fid": 16, "room_name": "215B", "type": "piece", "level": 2, "notes": null }, "geometry": { "type": "MultiPolygon", "coordinates": [ [ [ [ -8425100.47137962654233, 5688298.335546021349728 ], [ -8425096.316998697817326, 5688300.724315055646002 ], [ -8425093.166593162342906, 5688295.358239692635834 ], [ -8425097.320974089205265, 5688293.004090499132872 ], [ -8425100.47137962654233, 5688298.335546021349728 ] ] ] ] } },
{ "type": "Feature", "properties": { "fid": 17, "room_name": "215C", "type": "piece", "level": 2, "notes": null }, "geometry": { "type": "MultiPolygon", "coordinates": [ [ [ [ -8425098.621617749333382, 5688292.056143876165152 ], [ -8425093.055049724876881, 5688295.21266520768404 ], [ -8425088.661513274535537, 5688287.641279578208923 ], [ -8425094.100114220753312, 5688284.46343039907515 ], [ -8425098.621617749333382, 5688292.056143876165152 ] ] ] ] } },
{ "type": "Feature", "properties": { "fid": 18, "room_name": "215G", "type": "piece", "level": 2, "notes": null }, "geometry": { "type": "MultiPolygon", "coordinates": [ [ [ [ -8425118.290299970656633, 5688306.819600502960384 ], [ -8425108.508102623745799, 5688312.590393183752894 ], [ -8425103.652191709727049, 5688304.497208328917623 ], [ -8425113.575140098109841, 5688298.585664607584476 ], [ -8425118.290299970656633, 5688306.819600502960384 ] ] ] ] } },
{ "type": "Feature", "properties": { "fid": 19, "room_name": "211E", "type": "piece", "level": 2, "notes": null }, "geometry": { "type": "MultiPolygon", "coordinates": [ [ [ [ -8425094.026825385168195, 5688297.198316453024745 ], [ -8425089.985543809831142, 5688299.608024722896516 ], [ -8425084.488396819680929, 5688290.17000066768378 ], [ -8425088.60498177818954, 5688287.760292398743331 ], [ -8425094.026825385168195, 5688297.198316453024745 ] ] ] ] } },
{ "type": "Feature", "properties": { "fid": 20, "room_name": "211D", "type": "piece", "level": 2, "notes": null }, "geometry": { "type": "MultiPolygon", "coordinates": [ [ [ [ -8425098.581474872305989, 5688304.934747374616563 ], [ -8425094.569273242726922, 5688307.335490971803665 ], [ -8425090.030881237238646, 5688299.738617396913469 ], [ -8425094.158187011256814, 5688297.272100001573563 ], [ -8425098.581474872305989, 5688304.934747374616563 ] ] ] ] } },
{ "type": "Feature", "properties": { "fid": 21, "room_name": "216A", "type": "piece", "level": 2, "notes": null }, "geometry": { "type": "MultiPolygon", "coordinates": [ [ [ [ -8425102.633947944268584, 5688307.863921645097435 ], [ -8425101.304253023117781, 5688305.723943881690502 ], [ -8425103.527336720377207, 5688304.477354892529547 ], [ -8425104.836255157366395, 5688306.700438588857651 ], [ -8425102.633947944268584, 5688307.863921645097435 ] ] ] ] } },
{ "type": "Feature", "properties": { "fid": 22, "room_name": "220", "type": "piece", "level": 2, "notes": null }, "geometry": { "type": "MultiPolygon", "coordinates": [ [ [ [ -8425090.895860519260168, 5688335.617080775089562 ], [ -8425081.732181375846267, 5688341.00421336106956 ], [ -8425078.955308908596635, 5688336.4501425139606 ], [ -8425088.396675297990441, 5688331.007472477853298 ], [ -8425090.895860519260168, 5688335.617080775089562 ] ] ] ] } },
{ "type": "Feature", "properties": { "fid": 23, "room_name": "219", "type": "piece", "level": 2, "notes": null }, "geometry": { "type": "MultiPolygon", "coordinates": [ [ [ [ -8425084.292805561795831, 5688333.118897740729153 ], [ -8425078.942313531413674, 5688336.26624599378556 ], [ -8425076.91402243450284, 5688332.734221843071282 ], [ -8425082.2295439299196, 5688329.726755733601749 ], [ -8425084.292805561795831, 5688333.118897740729153 ] ] ] ] } },
{ "type": "Feature", "properties": { "fid": 24, "room_name": "218", "type": "piece", "level": 2, "notes": null }, "geometry": { "type": "MultiPolygon", "coordinates": [ [ [ [ -8425088.279446681961417, 5688330.810842352919281 ], [ -8425084.467658242210746, 5688333.048956668004394 ], [ -8425082.369426071643829, 5688329.621844124048948 ], [ -8425086.216185050085187, 5688327.348759275861084 ], [ -8425088.279446681961417, 5688330.810842352919281 ] ] ] ] } },
{ "type": "Feature", "properties": { "fid": 25, "room_name": "201C", "type": "piece", "level": 2, "notes": null }, "geometry": { "type": "MultiPolygon", "coordinates": [ [ [ [ -8425088.900630876421928, 5688323.173777059651911 ], [ -8425084.175730537623167, 5688325.945112835615873 ], [ -8425080.76835048571229, 5688320.235858260653913 ], [ -8425085.529889561235905, 5688317.436231064610183 ], [ -8425088.900630876421928, 5688323.173777059651911 ] ] ] ] } },
{ "type": "Feature", "properties": { "fid": 26, "room_name": "211H", "type": "piece", "level": 2, "notes": null }, "geometry": { "type": "MultiPolygon", "coordinates": [ [ [ [ -8425085.433552235364914, 5688317.243556421250105 ], [ -8425080.761192098259926, 5688320.061423103325069 ], [ -8425079.701481550931931, 5688318.35143562965095 ], [ -8425084.518347673118114, 5688315.629906269721687 ], [ -8425085.433552235364914, 5688317.243556421250105 ] ] ] ] } },
{ "type": "Feature", "properties": { "fid": 27, "room_name": "213", "type": "toilet", "level": 2, "notes": null }, "geometry": { "type": "MultiPolygon", "coordinates": [ [ [ [ -8425092.952475177124143, 5688282.411628094501793 ], [ -8425088.001154433935881, 5688285.356810259632766 ], [ -8425087.232846042141318, 5688283.990928676910698 ], [ -8425084.586450472474098, 5688283.606774482876062 ], [ -8425086.251118654385209, 5688277.246888354420662 ], [ -8425090.647550003603101, 5688278.442034740932286 ], [ -8425092.952475177124143, 5688282.411628094501793 ] ] ] ] } },
{ "type": "Feature", "properties": { "fid": 28, "room_name": "209", "type": "toilet", "level": 2, "notes": null }, "geometry": { "type": "MultiPolygon", "coordinates": [ [ [ [ -8425077.984438056126237, 5688278.450592089444399 ], [ -8425081.81222777813673, 5688276.186265775002539 ], [ -8425086.206099081784487, 5688277.372341463342309 ], [ -8425084.534810611978173, 5688283.491413769312203 ], [ -8425082.567003216594458, 5688283.167938580736518 ], [ -8425081.165277402848005, 5688284.00358281750232 ], [ -8425077.984438056126237, 5688278.450592089444399 ] ] ] ] } },
{ "type": "Feature", "properties": { "fid": 29, "room_name": "210", "type": "piece", "level": 2, "notes": null }, "geometry": { "type": "MultiPolygon", "coordinates": [ [ [ [ -8425087.795093702152371, 5688285.420052046887577 ], [ -8425083.521543828770518, 5688287.966619438491762 ], [ -8425081.238414445891976, 5688284.102862018160522 ], [ -8425082.701958922669291, 5688283.28327711019665 ], [ -8425087.092592353001237, 5688284.102862018160522 ], [ -8425087.795093702152371, 5688285.420052046887577 ] ] ] ] } },
{ "type": "Feature", "properties": { "fid": 30, "room_name": "208", "type": "piece", "level": 2, "notes": null }, "geometry": { "type": "MultiPolygon", "coordinates": [ [ [ [ -8425077.923270246013999, 5688278.289546413347125 ], [ -8425074.577345237135887, 5688272.747858113609254 ], [ -8425078.550631187856197, 5688270.447534666396677 ], [ -8425081.81813608109951, 5688276.119923164136708 ], [ -8425077.923270246013999, 5688278.289546413347125 ] ] ] ] } },
{ "type": "Feature", "properties": { "fid": 31, "room_name": "201B", "type": "piece", "level": 2, "notes": null }, "geometry": { "type": "MultiPolygon", "coordinates": [ [ [ [ -8425067.724245421588421, 5688330.306090849451721 ], [ -8425059.29120884090662, 5688335.286471150815487 ], [ -8425056.602414567023516, 5688330.825517017394304 ], [ -8425065.157669069245458, 5688325.936800157651305 ], [ -8425067.724245421588421, 5688330.306090849451721 ] ] ] ] } },
{ "type": "Feature", "properties": { "fid": 32, "room_name": "232A", "type": "piece", "level": 2, "notes": null }, "geometry": { "type": "MultiPolygon", "coordinates": [ [ [ [ -8425104.081628831103444, 5688455.317194865085185 ], [ -8425099.309618256986141, 5688458.072170042432845 ], [ -8425096.702231034636497, 5688453.742923333309591 ], [ -8425101.474241610616446, 5688450.987948156893253 ], [ -8425104.081628831103444, 5688455.317194865085185 ] ] ] ] } },
{ "type": "Feature", "properties": { "fid": 33, "room_name": "232B", "type": "piece", "level": 2, "notes": null }, "geometry": { "type": "MultiPolygon", "coordinates": [ [ [ [ -8425099.06363832950592, 5688458.121366026811302 ], [ -8425094.832783592864871, 5688460.777949234470725 ], [ -8425092.225396370515227, 5688456.448702525347471 ], [ -8425096.603839062154293, 5688453.792119321413338 ], [ -8425099.06363832950592, 5688458.121366026811302 ] ] ] ] } },
{ "type": "Feature", "properties": { "fid": 34, "room_name": "232", "type": "piece", "level": 2, "notes": null }, "geometry": { "type": "MultiPolygon", "coordinates": [ [ [ [ -8425104.278412770479918, 5688455.366390848532319 ], [ -8425094.832783592864871, 5688461.073125146329403 ], [ -8425088.683285428211093, 5688450.889556187205017 ], [ -8425098.128914611414075, 5688445.281213859096169 ], [ -8425104.278412770479918, 5688455.366390848532319 ] ] ] ] } },
{ "type": "Feature", "properties": { "fid": 35, "room_name": "230C", "type": "piece", "level": 2, "notes": null }, "geometry": { "type": "MultiPolygon", "coordinates": [ [ [ [ -8425075.092424590140581, 5688427.74731048475951 ], [ -8425065.958707589656115, 5688433.178989362902939 ], [ -8425063.379418736323714, 5688428.90040432382375 ], [ -8425072.664858607575297, 5688423.590103742666543 ], [ -8425075.092424590140581, 5688427.74731048475951 ] ] ] ] } },
{ "type": "Feature", "properties": { "fid": 36, "room_name": "230B", "type": "piece", "level": 2, "notes": null }, "geometry": { "type": "MultiPolygon", "coordinates": [ [ [ [ -8425071.056596146896482, 5688432.056240099482238 ], [ -8425070.328326351940632, 5688430.842457109130919 ], [ -8425075.213802885264158, 5688427.990067083388567 ], [ -8425076.366896728053689, 5688430.023153590969741 ], [ -8425073.514506699517369, 5688431.388659455813468 ], [ -8425071.056596146896482, 5688432.056240099482238 ] ] ] ] } },
{ "type": "Feature", "properties": { "fid": 37, "room_name": "230A", "type": "piece", "level": 2, "notes": null }, "geometry": { "type": "MultiPolygon", "coordinates": [ [ [ [ -8425070.87452869862318, 5688432.207962972112 ], [ -8425069.114543363451958, 5688433.998292883858085 ], [ -8425067.142146004363894, 5688435.090697574429214 ], [ -8425066.049741312861443, 5688433.300367663614452 ], [ -8425070.146258901804686, 5688430.903146258555353 ], [ -8425070.87452869862318, 5688432.207962972112 ] ] ] ] } },
{ "type": "Feature", "properties": { "fid": 38, "room_name": "230G", "type": "piece", "level": 2, "notes": null }, "geometry": { "type": "MultiPolygon", "coordinates": [ [ [ [ -8425083.640424925833941, 5688440.734286016784608 ], [ -8425081.953157491981983, 5688441.703211867250502 ], [ -8425082.337386710569263, 5688442.287908504717052 ], [ -8425082.003274349495769, 5688442.438259066082537 ], [ -8425079.363786676898599, 5688437.877625310793519 ], [ -8425081.301638385280967, 5688436.741643276065588 ], [ -8425083.640424925833941, 5688440.734286016784608 ] ] ] ] } },
{ "type": "Feature", "properties": { "fid": 39, "room_name": "230E", "type": "piece", "level": 2, "notes": null }, "geometry": { "type": "MultiPolygon", "coordinates": [ [ [ [ -8425087.611781608313322, 5688438.333861169405282 ], [ -8425083.749503856524825, 5688440.608576900325716 ], [ -8425081.380008302628994, 5688436.675214280374348 ], [ -8425085.360760832205415, 5688434.54266828391701 ], [ -8425087.611781608313322, 5688438.333861169405282 ] ] ] ] } },
{ "type": "Feature", "properties": { "fid": 40, "room_name": "230F", "type": "piece", "level": 2, "notes": null }, "geometry": { "type": "MultiPolygon", "coordinates": [ [ [ [ -8425090.265616627410054, 5688432.007308041676879 ], [ -8425085.668795252218843, 5688434.755922881886363 ], [ -8425085.50293056666851, 5688434.376803594641387 ], [ -8425079.247462304309011, 5688437.931046924553812 ], [ -8425076.818938992917538, 5688433.956392825581133 ], [ -8425087.661228002980351, 5688427.445124927908182 ], [ -8425090.265616627410054, 5688432.007308041676879 ] ] ] ] } },
{ "type": "Feature", "properties": { "fid": 41, "room_name": "230H", "type": "piece", "level": 2, "notes": null }, "geometry": { "type": "MultiPolygon", "coordinates": [ [ [ [ -8425081.860872779041529, 5688442.446361594833434 ], [ -8425079.23078833706677, 5688437.953300672583282 ], [ -8425075.477438662201166, 5688440.090244283899665 ], [ -8425078.299300095066428, 5688444.63809863012284 ], [ -8425081.860872779041529, 5688442.446361594833434 ] ] ] ] } },
{ "type": "Feature", "properties": { "fid": 42, "room_name": "230J", "type": "piece", "level": null, "notes": null }, "geometry": { "type": "MultiPolygon", "coordinates": [ [ [ [ -8425084.244386803358793, 5688445.569586871191859 ], [ -8425080.271863427013159, 5688447.953100895509124 ], [ -8425078.491077085956931, 5688444.747685481794178 ], [ -8425082.326616896316409, 5688442.391568169929087 ], [ -8425084.244386803358793, 5688445.569586871191859 ] ] ] ] } },
{ "type": "Feature", "properties": { "fid": 43, "room_name": "231A", "type": "piece", "level": 2, "notes": null }, "geometry": { "type": "MultiPolygon", "coordinates": [ [ [ [ -8425085.395048744976521, 5688447.514753488823771 ], [ -8425081.395128658041358, 5688449.843474089168012 ], [ -8425080.354053566232324, 5688448.09008446149528 ], [ -8425084.353973655030131, 5688445.733967147767544 ], [ -8425085.395048744976521, 5688447.514753488823771 ] ] ] ] } },
{ "type": "Feature", "properties": { "fid": 44, "room_name": "224B", "type": "piece", "level": 2, "notes": null }, "geometry": { "type": "MultiPolygon", "coordinates": [ [ [ [ -8425073.023611713200808, 5688459.472644680179656 ], [ -8425071.504582503810525, 5688456.969059499911964 ], [ -8425077.904196308925748, 5688453.241811899468303 ], [ -8425079.465420773252845, 5688455.773527250625193 ], [ -8425073.023611713200808, 5688459.472644680179656 ] ] ] ] } },
{ "type": "Feature", "properties": { "fid": 45, "room_name": "223", "type": "stairs D", "level": 2, "notes": null }, "geometry": { "type": "MultiPolygon", "coordinates": [ [ [ [ -8425090.997972078621387, 5688444.155448598787189 ], [ -8425085.439107675105333, 5688447.425368835218251 ], [ -8425082.087439430877566, 5688441.743882421404123 ], [ -8425087.687177838757634, 5688438.473962185904384 ], [ -8425090.997972078621387, 5688444.155448598787189 ] ] ] ] } },
{ "type": "Feature", "properties": { "fid": 46, "room_name": "224A", "type": "piece", "level": 2, "notes": null }, "geometry": { "type": "MultiPolygon", "coordinates": [ [ [ [ -8425098.636405313387513, 5688431.412593278102577 ], [ -8425091.989539101719856, 5688435.233232912607491 ], [ -8425090.236231870949268, 5688432.249993745237589 ], [ -8425096.856929318979383, 5688428.403185345232487 ], [ -8425098.636405313387513, 5688431.412593278102577 ] ] ] ] } },
{ "type": "Feature", "properties": { "fid": 47, "room_name": "200", "type": "stairs A", "level": 2, "notes": null }, "geometry": { "type": "MultiPolygon", "coordinates": [ [ [ [ -8425073.403026709333062, 5688339.534518642351031 ], [ -8425064.717976512387395, 5688344.633997657336295 ], [ -8425059.339619740843773, 5688335.39119194354862 ], [ -8425067.905150897800922, 5688330.411231969483197 ], [ -8425073.403026709333062, 5688339.534518642351031 ] ] ] ] } },
{ "type": "Feature", "properties": { "fid": 48, "room_name": "212", "type": "stairs C", "level": 2, "notes": null }, "geometry": { "type": "MultiPolygon", "coordinates": [ [ [ [ -8425098.877286162227392, 5688278.899566421285272 ], [ -8425093.038541069254279, 5688282.296144096180797 ], [ -8425090.736728105694056, 5688278.394290407188237 ], [ -8425096.491260524839163, 5688274.969641842879355 ], [ -8425098.877286162227392, 5688278.899566421285272 ] ] ] ] } },
{ "type": "Feature", "properties": { "fid": 49, "room_name": "222", "type": "stairs G", "level": 2, "notes": null }, "geometry": { "type": "MultiPolygon", "coordinates": [ [ [ [ -8425076.17320954054594, 5688344.180380051955581 ], [ -8425067.23920601606369, 5688349.459563952870667 ], [ -8425064.531932219862938, 5688344.924880346283317 ], [ -8425073.533617589622736, 5688339.713378288783133 ], [ -8425076.17320954054594, 5688344.180380051955581 ] ] ] ] } },
{ "type": "Feature", "properties": { "fid": 50, "room_name": "216", "type": "piece", "level": 2, "notes": null }, "geometry": { "type": "MultiPolygon", "coordinates": [ [ [ [ -8425108.265264729037881, 5688312.623480551876128 ], [ -8425099.495307626202703, 5688317.905386536382139 ], [ -8425105.026360118761659, 5688327.273295262828469 ], [ -8425091.074155634269118, 5688335.49513004720211 ], [ -8425085.24412733130157, 5688325.429611096158624 ], [ -8425089.031154261901975, 5688323.187292518094182 ], [ -8425084.696005010977387, 5688315.513580054044724 ], [ -8425101.189503885805607, 5688305.846695516258478 ], [ -8425103.581310367211699, 5688304.351816464215517 ], [ -8425108.265264729037881, 5688312.623480551876128 ] ] ] ] } }
]
}
