{
"type": "FeatureCollection",
"name": "ucu etage 0 fichier finale",
"crs": { "type": "name", "properties": { "name": "urn:ogc:def:crs:EPSG::3857" } },
"features": [
{ "type": "Feature", "properties": { "id": null, "Classroom": "07", "elevator": null, "toilet": null, "accessible ": false, "layer": null, "path": null, "type": "piece" }, "geometry": { "type": "MultiPolygon", "coordinates": [ [ [ [ -8425071.624375058338046, 5688308.272768035531044 ], [ -8425075.188230538740754, 5688313.856570482254028 ], [ -8425043.769692350178957, 5688334.158967394381762 ], [ -8425042.67609048821032, 5688332.473533936776221 ], [ -8425063.879100700840354, 5688318.719882289879024 ], [ -8425061.305919852107763, 5688314.628524738363922 ], [ -8425071.624375058338046, 5688308.272768035531044 ] ] ] ] } },
{ "type": "Feature", "properties": { "id": null, "Classroom": "014A", "elevator": null, "toilet": null, "accessible ": false, "layer": null, "path": null, "type": "piece" }, "geometry": { "type": "MultiPolygon", "coordinates": [ [ [ [ -8425086.909069312736392, 5688276.77703442517668 ], [ -8425086.548823993653059, 5688278.578261020593345 ], [ -8425089.430786546319723, 5688283.132791126146913 ], [ -8425092.441408140584826, 5688281.3572963392362 ], [ -8425090.022618141025305, 5688277.548988680355251 ], [ -8425086.909069312736392, 5688276.77703442517668 ] ] ] ] } },
{ "type": "Feature", "properties": { "id": 2, "Classroom": null, "elevator": null, "toilet": null, "accessible ": false, "layer": null, "path": null, "type": "piece" }, "geometry": { "type": "MultiPolygon", "coordinates": [ [ [ [ -8425103.10724276304245, 5688300.913470805622637 ], [ -8425099.093080636113882, 5688303.486651656217873 ], [ -8425098.038076488301158, 5688301.994206762872636 ], [ -8425098.578444465994835, 5688301.608229635283351 ], [ -8425095.619286488741636, 5688297.002235912717879 ], [ -8425099.556253189221025, 5688294.634909530170262 ], [ -8425103.390292657539248, 5688300.759079954586923 ], [ -8425103.10724276304245, 5688300.913470805622637 ] ] ] ] } },
{ "type": "Feature", "properties": { "id": 3, "Classroom": null, "elevator": null, "toilet": null, "accessible ": false, "layer": null, "path": null, "type": "piece" }, "geometry": { "type": "MultiPolygon", "coordinates": [ [ [ [ -8425091.232013134285808, 5688308.427158890292048 ], [ -8425103.377426750957966, 5688300.759079954586923 ], [ -8425107.031343558803201, 5688306.36861420981586 ], [ -8425096.893011007457972, 5688312.878761761821806 ], [ -8425093.856657603755593, 5688312.364125591702759 ], [ -8425091.232013134285808, 5688308.427158890292048 ] ] ] ] } },
{ "type": "Feature", "properties": { "fid": null, "id": null, "Classroom": null, "elevator": null, "toilet": null, "accessible ": false, "layer": null, "path": null, "type": "corridor" }, "geometry": { "type": "MultiPolygon", "coordinates": [ [ [ [ -8425086.896392134949565, 5688276.811249802820385 ], [ -8425082.863504266366363, 5688275.819639857858419 ], [ -8425082.431591687723994, 5688278.068652104586363 ], [ -8425078.362924078479409, 5688280.637126316316426 ], [ -8425077.141301516443491, 5688278.753578561358154 ], [ -8425064.319376021623611, 5688286.850022645667195 ], [ -8425067.452658986672759, 5688291.795293889008462 ], [ -8425061.513222105801105, 5688295.43460460845381 ], [ -8425061.656341068446636, 5688295.649602514691651 ], [ -8425061.450927026569843, 5688297.205062826164067 ], [ -8425056.299283364787698, 5688300.440893080085516 ], [ -8425058.479930743575096, 5688303.933251294307411 ], [ -8425066.780830472707748, 5688298.377168780192733 ], [ -8425069.758854920044541, 5688299.047399985603988 ], [ -8425072.640401856973767, 5688303.899707786738873 ], [ -8425071.638569131493568, 5688308.264836090616882 ], [ -8425075.190986193716526, 5688313.851586953736842 ], [ -8425062.478955637663603, 5688322.080927198752761 ], [ -8425064.779081795364618, 5688325.794353091157973 ], [ -8425053.038215614855289, 5688333.35665675252676 ], [ -8425050.642250893637538, 5688329.730124514549971 ], [ -8425049.119056237861514, 5688330.70128889195621 ], [ -8425051.564857052639127, 5688334.422381873242557 ], [ -8425027.46656309813261, 5688349.844088825397193 ], [ -8425028.942796852439642, 5688352.183349088765681 ], [ -8425031.182544711977243, 5688350.777077504433692 ], [ -8425032.077038226649165, 5688352.173126306384802 ], [ -8425032.430363167077303, 5688350.001423846930265 ], [ -8425045.891212668269873, 5688341.27436179574579 ], [ -8425050.00875798612833, 5688342.44758587423712 ], [ -8425056.556610219180584, 5688352.551529009826481 ], [ -8425055.816736301407218, 5688356.737758637405932 ], [ -8425042.437669070437551, 5688365.401567220687866 ], [ -8425040.247437814250588, 5688364.942180910147727 ], [ -8425040.97932518646121, 5688366.085854756645858 ], [ -8425038.709228441119194, 5688367.592117937281728 ], [ -8425039.417795091867447, 5688368.715985140763223 ], [ -8425031.672759134322405, 5688373.709175705909729 ], [ -8425032.723311947658658, 5688375.35358667653054 ], [ -8425027.172341326251626, 5688379.05423376057297 ], [ -8425032.007717207074165, 5688386.036393863148987 ], [ -8425036.894206997007132, 5688382.841774489730597 ], [ -8425040.862563202157617, 5688388.917940546758473 ], [ -8425035.804841808974743, 5688392.256956714205444 ], [ -8425031.23525825701654, 5688395.273955243639648 ], [ -8425034.038856226950884, 5688399.613526202738285 ], [ -8425044.05718257650733, 5688393.224287459626794 ], [ -8425074.236025163903832, 5688439.908498324453831 ], [ -8425072.891090556979179, 5688440.79592355247587 ], [ -8425079.768466383218765, 5688451.60891027841717 ], [ -8425084.887204432860017, 5688448.346086141653359 ], [ -8425078.702701544389129, 5688438.637559077702463 ], [ -8425081.486372757703066, 5688436.870575365610421 ], [ -8425079.41354420594871, 5688433.678032851777971 ], [ -8425075.518984159454703, 5688433.743522540666163 ], [ -8425072.872010404244065, 5688429.564360685646534 ], [ -8425080.029874570667744, 5688424.918106269091368 ], [ -8425088.313752792775631, 5688437.732962771318853 ], [ -8425087.014820698648691, 5688438.577939501963556 ], [ -8425089.794458707794547, 5688442.745320015586913 ], [ -8425087.734248904511333, 5688444.104630407877266 ], [ -8425091.563638724386692, 5688450.018509135581553 ], [ -8425097.313633497804403, 5688446.288232375867665 ], [ -8425093.467751456424594, 5688440.233331182040274 ], [ -8425092.741584524512291, 5688440.693456204608083 ], [ -8425090.001240026205778, 5688436.482308947481215 ], [ -8425091.504308437928557, 5688435.52999291010201 ], [ -8425088.456961015239358, 5688430.907059209421277 ], [ -8425087.714531471952796, 5688431.44024118501693 ], [ -8425082.459702065214515, 5688423.366799095645547 ], [ -8425091.826964993029833, 5688417.290633048862219 ], [ -8425092.8658552095294, 5688418.892415203154087 ], [ -8425096.632950374856591, 5688416.372499440796673 ], [ -8425093.504779083654284, 5688411.654685549438 ], [ -8425089.745989924296737, 5688414.128598790615797 ], [ -8425084.77707895077765, 5688406.512626203708351 ], [ -8425088.518617160618305, 5688404.174164824187756 ], [ -8425082.543401082977653, 5688394.986439506523311 ], [ -8425074.749807665124536, 5688399.998158379457891 ], [ -8425068.274953115731478, 5688390.212400313466787 ], [ -8425053.784159639850259, 5688399.520243321545422 ], [ -8425045.041764251887798, 5688386.212097927927971 ], [ -8425054.5654237549752, 5688380.070921373553574 ], [ -8425046.230960497632623, 5688367.075867392122746 ], [ -8425054.932465573772788, 5688361.460684378631413 ], [ -8425064.956543212756515, 5688354.918742193840444 ], [ -8425063.666076326742768, 5688352.889839208684862 ], [ -8425077.032364988699555, 5688344.36403825506568 ], [ -8425070.949809152632952, 5688334.764845099300146 ], [ -8425081.453718600794673, 5688328.079145070165396 ], [ -8425076.572339756414294, 5688320.30983005464077 ], [ -8425084.813180627301335, 5688314.916034219786525 ], [ -8425083.77972118742764, 5688313.305307022295892 ], [ -8425099.079074183478951, 5688303.462683811783791 ], [ -8425098.041461715474725, 5688301.99571446236223 ], [ -8425098.567935034632683, 5688301.612360102124512 ], [ -8425095.628884948790073, 5688297.006996398791671 ], [ -8425099.554433587938547, 5688294.619976590387523 ], [ -8425096.554046802222729, 5688289.637647766619921 ], [ -8425092.567161463201046, 5688292.034890359267592 ], [ -8425096.472264537587762, 5688289.591645242646337 ], [ -8425091.703336305916309, 5688281.809551749378443 ], [ -8425089.421100018545985, 5688283.125735049135983 ], [ -8425086.548498017713428, 5688278.575318803079426 ], [ -8425086.896392134949565, 5688276.811249802820385 ] ] ] ] } },
{ "type": "Feature", "properties": { "fid": null, "id": null, "Classroom": null, "elevator": null, "toilet": null, "accessible ": false, "layer": null, "path": null, "type": "corridor" }, "geometry": { "type": "MultiPolygon", "coordinates": [ [ [ [ -8425029.722842672839761, 5688382.850645940750837 ], [ -8425025.063810292631388, 5688385.845920731313527 ], [ -8425022.69979221560061, 5688382.367619542405009 ], [ -8425027.384381549432874, 5688379.400457398034632 ], [ -8425029.722842672839761, 5688382.850645940750837 ] ] ] ] } },
{ "type": "Feature", "properties": { "id": 6, "Classroom": null, "elevator": null, "toilet": null, "accessible ": false, "layer": null, "path": null, "type": "piece" }, "geometry": { "type": "MultiPolygon", "coordinates": [ [ [ [ -8425084.876774372532964, 5688314.876343573443592 ], [ -8425086.256124658510089, 5688317.188839682377875 ], [ -8425081.613412365317345, 5688320.368895220570266 ], [ -8425080.651415124535561, 5688318.909654376097023 ], [ -8425077.16759973578155, 5688321.197130122222006 ], [ -8425076.567843429744244, 5688320.311775571666658 ], [ -8425084.876774372532964, 5688314.876343573443592 ] ] ] ] } },
{ "type": "Feature", "properties": { "id": null, "Classroom": null, "elevator": null, "toilet": null, "accessible ": false, "layer": null, "path": null, "type": "piece" }, "geometry": { "type": "MultiPolygon", "coordinates": [ [ [ [ -8425107.104542916640639, 5688306.45252594538033 ], [ -8425110.455562284216285, 5688311.726573474705219 ], [ -8425100.021706525236368, 5688318.276293149217963 ], [ -8425105.676551708951592, 5688327.75815477129072 ], [ -8425077.421365670859814, 5688344.951168917119503 ], [ -8425070.947805527597666, 5688334.76483163330704 ], [ -8425081.451573360711336, 5688328.089567684568465 ], [ -8425081.88949066400528, 5688328.755963581614196 ], [ -8425085.513315854594111, 5688326.406323094852269 ], [ -8425085.065878609195352, 5688325.711367373354733 ], [ -8425089.759209711104631, 5688322.59834654070437 ], [ -8425083.780686520040035, 5688313.306883746758103 ], [ -8425091.187200918793678, 5688308.47075352165848 ], [ -8425093.85278450883925, 5688312.392969372682273 ], [ -8425096.880125867202878, 5688312.902286235243082 ], [ -8425107.104542916640639, 5688306.45252594538033 ] ] ] ] } },
{ "type": "Feature", "properties": { "id": null, "Classroom": "034C", "elevator": null, "toilet": null, "accessible ": false, "layer": null, "path": null, "type": "piece" }, "geometry": { "type": "MultiPolygon", "coordinates": [ [ [ [ -8425021.40127058327198, 5688340.562475936487317 ], [ -8425017.307695783674717, 5688343.247099406085908 ], [ -8425021.401270581409335, 5688349.577860428951681 ], [ -8425025.561484968289733, 5688346.912276840768754 ], [ -8425021.40127058327198, 5688340.562475936487317 ] ] ] ] } },
{ "type": "Feature", "properties": { "id": null, "Classroom": "034A", "elevator": null, "toilet": null, "accessible ": false, "layer": null, "path": null, "type": "piece" }, "geometry": { "type": "MultiPolygon", "coordinates": [ [ [ [ -8425013.794837415218353, 5688351.305729792453349 ], [ -8425012.100287849083543, 5688352.40052305161953 ], [ -8425010.101100157946348, 5688349.258942394517362 ], [ -8425014.128035362809896, 5688346.593358804471791 ], [ -8425013.492579279467463, 5688345.691344358026981 ], [ -8425017.312455760315061, 5688343.249479391612113 ], [ -8425020.701554894447327, 5688348.499727066606283 ], [ -8425020.375496901571751, 5688348.709165777079761 ], [ -8425019.29736353456974, 5688347.126475522294641 ], [ -8425013.452119525521994, 5688350.839252664707601 ], [ -8425013.794837415218353, 5688351.305729792453349 ] ] ] ] } },
{ "type": "Feature", "properties": { "id": null, "Classroom": "034E", "elevator": null, "toilet": null, "accessible ": false, "layer": null, "path": null, "type": "piece" }, "geometry": { "type": "MultiPolygon", "coordinates": [ [ [ [ -8425019.250953830778599, 5688350.961821906268597 ], [ -8425021.401270590722561, 5688349.583810394629836 ], [ -8425020.702744891867042, 5688348.499727067537606 ], [ -8425020.374306920915842, 5688348.710355767980218 ], [ -8425019.297958545386791, 5688347.124690530821681 ], [ -8425013.45211953856051, 5688350.839847658760846 ], [ -8425013.794539930298924, 5688351.305729784071445 ], [ -8425012.09880037419498, 5688352.402308033779263 ], [ -8425010.098422693088651, 5688349.258347391150892 ], [ -8425007.489958759397268, 5688351.049286363646388 ], [ -8425010.288821527734399, 5688355.195220838300884 ], [ -8425011.321735166013241, 5688354.457425380125642 ], [ -8425012.122600227594376, 5688355.534368749707937 ], [ -8425019.250953830778599, 5688350.961821906268597 ] ] ] ] } },
{ "type": "Feature", "properties": { "id": null, "Classroom": "04", "elevator": null, "toilet": null, "accessible ": false, "layer": null, "path": null, "type": "piece" }, "geometry": { "type": "MultiPolygon", "coordinates": [ [ [ [ -8425056.151139160618186, 5688374.054224726743996 ], [ -8425052.333642665296793, 5688376.519889545626938 ], [ -8425046.231360234320164, 5688367.076107690110803 ], [ -8425050.115496320649981, 5688364.581883047707379 ], [ -8425056.151139160618186, 5688374.054224726743996 ] ] ] ] } },
{ "type": "Feature", "properties": { "fid": null, "id": null, "Classroom": null, "elevator": null, "toilet": null, "accessible ": false, "layer": null, "path": null, "type": "corridor" }, "geometry": { "type": "MultiPolygon", "coordinates": [ [ [ [ -8425027.38693724386394, 5688379.372344746254385 ], [ -8425022.671679569408298, 5688382.359952452592552 ], [ -8425022.47233534231782, 5688382.058380416594446 ], [ -8425024.794823365285993, 5688380.570965801365674 ], [ -8425017.345610739663243, 5688369.211539489217103 ], [ -8425016.051790034398437, 5688370.031278729438782 ], [ -8425009.902787344530225, 5688360.57265073992312 ], [ -8424999.642948903143406, 5688367.04494887124747 ], [ -8424997.047640414908528, 5688363.305327845737338 ], [ -8425006.979072023183107, 5688357.235551711171865 ], [ -8425011.321198193356395, 5688354.460066708736122 ], [ -8425012.080239670351148, 5688355.482344795018435 ], [ -8425013.046292461454868, 5688356.995316362008452 ], [ -8425027.38693724386394, 5688379.372344746254385 ] ] ] ] } },
{ "type": "Feature", "properties": { "fid": null, "id": null, "Classroom": null, "elevator": null, "toilet": null, "accessible ": false, "layer": null, "path": null, "type": "corridor" }, "geometry": { "type": "MultiPolygon", "coordinates": [ [ [ [ -8425029.765650559216738, 5688382.945206651464105 ], [ -8425031.851097855716944, 5688386.093823156319559 ], [ -8425027.312183152884245, 5688389.181102976202965 ], [ -8425025.144953610375524, 5688385.909813100472093 ], [ -8425029.765650559216738, 5688382.945206651464105 ] ] ] ] } },
{ "type": "Feature", "properties": { "id": 14, "Classroom": null, "elevator": null, "toilet": null, "accessible ": false, "layer": null, "path": null, "type": "piece" }, "geometry": { "type": "MultiPolygon", "coordinates": [ [ [ [ -8425082.869175374507904, 5688275.824957510456443 ], [ -8425082.431734630838037, 5688278.063624850474298 ], [ -8425078.366108885034919, 5688280.636805701069534 ], [ -8425076.333296013996005, 5688277.497525063343346 ], [ -8425080.244530906900764, 5688275.053003255277872 ], [ -8425082.869175374507904, 5688275.824957510456443 ] ] ] ] } },
{ "type": "Feature", "properties": { "id": null, "Classroom": "03", "elevator": null, "toilet": null, "accessible ": false, "layer": null, "path": null, "type": "piece" }, "geometry": { "type": "MultiPolygon", "coordinates": [ [ [ [ -8425068.070105778053403, 5688350.206771550700068 ], [ -8425073.834430288523436, 5688359.222156029194593 ], [ -8425054.285230649635196, 5688371.141122662462294 ], [ -8425050.115496324375272, 5688364.572363103739917 ], [ -8425064.957084944471717, 5688354.919142535887659 ], [ -8425063.66237291879952, 5688352.89139502029866 ], [ -8425068.070105778053403, 5688350.206771550700068 ] ] ] ] } },
{ "type": "Feature", "properties": { "id": null, "Classroom": "021A", "elevator": null, "toilet": null, "accessible ": false, "layer": null, "path": null, "type": "piece" }, "geometry": { "type": "MultiPolygon", "coordinates": [ [ [ [ -8425045.041367558762431, 5688386.211189879104495 ], [ -8425054.580348830670118, 5688380.061307743191719 ], [ -8425057.169772887602448, 5688383.964483711868525 ], [ -8425047.649831499904394, 5688390.133405730128288 ], [ -8425045.041367558762431, 5688386.211189879104495 ] ] ] ] } },
{ "type": "Feature", "properties": { "id": 17, "Classroom": null, "elevator": null, "toilet": null, "accessible ": false, "layer": null, "path": null, "type": "piece" }, "geometry": { "type": "MultiPolygon", "coordinates": [ [ [ [ -8425089.81676366738975, 5688322.631117180921137 ], [ -8425086.265774093568325, 5688317.20170558616519 ], [ -8425081.603892423212528, 5688320.368895220570266 ], [ -8425085.033863762393594, 5688325.710893012583256 ], [ -8425089.81676366738975, 5688322.631117180921137 ] ] ] ] } },
{ "type": "Feature", "properties": { "id": 18, "Classroom": null, "elevator": null, "toilet": null, "accessible ": false, "layer": null, "path": null, "type": "piece" }, "geometry": { "type": "MultiPolygon", "coordinates": [ [ [ [ -8425032.430122677236795, 5688350.001497823745012 ], [ -8425045.891319800168276, 5688341.276471537537873 ], [ -8425050.008694449439645, 5688342.44742432795465 ], [ -8425056.553654154762626, 5688352.548082141205668 ], [ -8425055.820618668571115, 5688356.746376292780042 ], [ -8425042.435581078752875, 5688365.40000301413238 ], [ -8425040.207914793863893, 5688364.93352588545531 ], [ -8425032.087404791265726, 5688352.167284485884011 ], [ -8425032.430122677236795, 5688350.001497823745012 ] ] ] ] } },
{ "type": "Feature", "properties": { "id": 18, "Classroom": null, "elevator": null, "toilet": null, "accessible ": false, "layer": null, "path": null, "type": "piece" }, "geometry": { "type": "MultiPolygon", "coordinates": [ [ [ [ -8425031.18301035836339, 5688350.777373042888939 ], [ -8425028.945824133232236, 5688352.186324368230999 ], [ -8425038.713283993303776, 5688367.589589533396065 ], [ -8425040.979030044749379, 5688366.085438794456422 ], [ -8425031.18301035836339, 5688350.777373042888939 ] ] ] ] } },
{ "type": "Feature", "properties": { "id": null, "Classroom": "03M", "elevator": null, "toilet": null, "accessible ": false, "layer": null, "path": null, "type": "piece" }, "geometry": { "type": "MultiPolygon", "coordinates": [ [ [ [ -8425056.965094141662121, 5688373.544907863251865 ], [ -8425061.801224365830421, 5688380.93238237965852 ], [ -8425060.882550025358796, 5688381.527378716506064 ], [ -8425057.093613352626562, 5688383.98352359328419 ], [ -8425052.295562893152237, 5688376.557969311252236 ], [ -8425056.965094141662121, 5688373.544907863251865 ] ] ] ] } },
{ "type": "Feature", "properties": { "id": null, "Classroom": "021B", "elevator": null, "toilet": null, "accessible ": false, "layer": null, "path": null, "type": "piece" }, "geometry": { "type": "MultiPolygon", "coordinates": [ [ [ [ -8425047.630791615694761, 5688390.057246200740337 ], [ -8425051.219809517264366, 5688395.769211034290493 ], [ -8425058.616803975775838, 5688390.942600751295686 ], [ -8425057.360171712934971, 5688388.962452942505479 ], [ -8425055.79890132509172, 5688389.990606611594558 ], [ -8425053.514115393161774, 5688386.344469060190022 ], [ -8425047.630791615694761, 5688390.057246200740337 ] ] ] ] } },
{ "type": "Feature", "properties": { "id": null, "Classroom": "030C", "elevator": null, "toilet": null, "accessible ": false, "layer": null, "path": null, "type": "piece" }, "geometry": { "type": "MultiPolygon", "coordinates": [ [ [ [ -8425061.034869087859988, 5688389.38133036531508 ], [ -8425058.621563939377666, 5688390.937840778380632 ], [ -8425057.364931674674153, 5688388.962452940642834 ], [ -8425055.798901317641139, 5688389.985846639610827 ], [ -8425053.509355414658785, 5688386.325429175980389 ], [ -8425057.436331240460277, 5688383.783604827709496 ], [ -8425061.034869087859988, 5688389.38133036531508 ] ] ] ] } },
{ "type": "Feature", "properties": { "id": null, "Classroom": "030A", "elevator": null, "toilet": null, "accessible ": false, "layer": null, "path": null, "type": "piece" }, "geometry": { "type": "MultiPolygon", "coordinates": [ [ [ [ -8425068.696041915565729, 5688376.641268791630864 ], [ -8425064.942805018275976, 5688378.956994540058076 ], [ -8425068.531822925433517, 5688384.411920952610672 ], [ -8425072.139880709350109, 5688382.074775341898203 ], [ -8425068.696041915565729, 5688376.641268791630864 ] ] ] ] } },
{ "type": "Feature", "properties": { "id": null, "Classroom": "030D", "elevator": null, "toilet": null, "accessible ": false, "layer": null, "path": null, "type": "piece" }, "geometry": { "type": "MultiPolygon", "coordinates": [ [ [ [ -8425062.705618800595403, 5688392.056433877907693 ], [ -8425063.519573789089918, 5688393.329726038500667 ], [ -8425059.283199867233634, 5688396.050049297511578 ], [ -8425056.741375515237451, 5688392.156393270008266 ], [ -8425060.9896493665874, 5688389.383710333146155 ], [ -8425062.705618800595403, 5688392.056433877907693 ] ] ] ] } },
{ "type": "Feature", "properties": { "id": null, "Classroom": "023", "elevator": null, "toilet": null, "accessible ": false, "layer": null, "path": null, "type": "piece" }, "geometry": { "type": "MultiPolygon", "coordinates": [ [ [ [ -8425053.790193686261773, 5688399.524827904067934 ], [ -8425051.257889278233051, 5688395.783490938134491 ], [ -8425056.741375515237451, 5688392.170673183165491 ], [ -8425059.287959834560752, 5688396.059569238685071 ], [ -8425053.790193686261773, 5688399.524827904067934 ] ] ] ] } },
{ "type": "Feature", "properties": { "id": null, "Classroom": "03G", "elevator": null, "toilet": null, "accessible ": false, "layer": null, "path": null, "type": "piece" }, "geometry": { "type": "MultiPolygon", "coordinates": [ [ [ [ -8425075.695578819140792, 5688366.328792286105454 ], [ -8425072.61111781001091, 5688368.423179392702878 ], [ -8425076.066856531426311, 5688373.778146422468126 ], [ -8425079.189397308975458, 5688371.726599054411054 ], [ -8425075.695578819140792, 5688366.328792286105454 ] ] ] ] } },
{ "type": "Feature", "properties": { "id": null, "Classroom": "03J", "elevator": null, "toilet": null, "accessible ": false, "layer": null, "path": null, "type": "piece" }, "geometry": { "type": "MultiPolygon", "coordinates": [ [ [ [ -8425076.059716576710343, 5688373.778146423399448 ], [ -8425072.603977855294943, 5688368.423179391771555 ], [ -8425069.264858415350318, 5688370.569926175288856 ], [ -8425072.777716785669327, 5688375.958212997764349 ], [ -8425076.059716576710343, 5688373.778146423399448 ] ] ] ] } },
{ "type": "Feature", "properties": { "id": null, "Classroom": "03H", "elevator": null, "toilet": null, "accessible ": false, "layer": null, "path": null, "type": "piece" }, "geometry": { "type": "MultiPolygon", "coordinates": [ [ [ [ -8425072.758676899597049, 5688375.953453026711941 ], [ -8425069.533796757459641, 5688377.993100469000638 ], [ -8425068.696041915565729, 5688376.660308674909174 ], [ -8425067.62980847992003, 5688377.345744454301894 ], [ -8425064.992784714326262, 5688373.347369070164859 ], [ -8425069.260098440572619, 5688370.572306158021092 ], [ -8425072.758676899597049, 5688375.953453026711941 ] ] ] ] } },
{ "type": "Feature", "properties": { "id": null, "Classroom": "03K", "elevator": null, "toilet": null, "accessible ": false, "layer": null, "path": null, "type": "piece" }, "geometry": { "type": "MultiPolygon", "coordinates": [ [ [ [ -8425059.252260057255626, 5688377.026826417073607 ], [ -8425064.992784714326262, 5688373.347369071096182 ], [ -8425067.608388610184193, 5688377.317184628918767 ], [ -8425061.801224365830421, 5688380.92524241656065 ], [ -8425059.252260057255626, 5688377.026826417073607 ] ] ] ] } },
{ "type": "Feature", "properties": { "id": null, "Classroom": "037B", "elevator": null, "toilet": null, "accessible ": false, "layer": null, "path": null, "type": "piece" }, "geometry": { "type": "MultiPolygon", "coordinates": [ [ [ [ -8425018.13325322419405, 5688370.286707913503051 ], [ -8425017.345478072762489, 5688369.210954536683857 ], [ -8425015.089251967146993, 5688370.638945744372904 ], [ -8425020.03962148539722, 5688378.216819087043405 ], [ -8425022.333927359431982, 5688376.760268054902554 ], [ -8425018.13325322419405, 5688370.286707913503051 ] ] ] ] } },
{ "type": "Feature", "properties": { "id": null, "Classroom": "037A", "elevator": null, "toilet": null, "accessible ": false, "layer": null, "path": null, "type": "piece" }, "geometry": { "type": "MultiPolygon", "coordinates": [ [ [ [ -8425022.333927357569337, 5688376.762648038566113 ], [ -8425020.046761438250542, 5688378.200159187428653 ], [ -8425022.491006391122937, 5688382.04621550720185 ], [ -8425024.794832205399871, 5688380.570624591782689 ], [ -8425022.333927357569337, 5688376.762648038566113 ] ] ] ] } },
{ "type": "Feature", "properties": { "id": null, "Classroom": "031A", "elevator": null, "toilet": null, "accessible ": false, "layer": null, "path": null, "type": "piece" }, "geometry": { "type": "MultiPolygon", "coordinates": [ [ [ [ -8425074.72692478261888, 5688386.00413113925606 ], [ -8425068.272404523566365, 5688390.207185261882842 ], [ -8425070.814228873699903, 5688393.900922516360879 ], [ -8425077.116430072113872, 5688389.807347719557583 ], [ -8425074.72692478261888, 5688386.00413113925606 ] ] ] ] } },
{ "type": "Feature", "properties": { "id": null, "Classroom": "031B", "elevator": null, "toilet": null, "accessible ": false, "layer": null, "path": null, "type": "piece" }, "geometry": { "type": "MultiPolygon", "coordinates": [ [ [ [ -8425074.750724641606212, 5688399.998444977216423 ], [ -8425082.557076578959823, 5688394.971915924921632 ], [ -8425080.538849003612995, 5688391.50665725953877 ], [ -8425078.872859261929989, 5688392.534810929559171 ], [ -8425077.140229931101203, 5688389.793067810125649 ], [ -8425070.809468906372786, 5688393.915202430449426 ], [ -8425074.750724641606212, 5688399.998444977216423 ] ] ] ] } },
{ "type": "Feature", "properties": { "id": null, "Classroom": "030", "elevator": null, "toilet": null, "accessible ": false, "layer": null, "path": null, "type": "piece" }, "geometry": { "type": "MultiPolygon", "coordinates": [ [ [ [ -8425063.517193801701069, 5688393.324966065585613 ], [ -8425071.095067147165537, 5688388.365076602436602 ], [ -8425064.935665069147944, 5688378.978414395824075 ], [ -8425057.414911372587085, 5688383.771704885177314 ], [ -8425063.517193801701069, 5688393.324966065585613 ] ] ] ] } },
{ "type": "Feature", "properties": { "id": 34, "Classroom": null, "elevator": null, "toilet": null, "accessible ": false, "layer": null, "path": null, "type": "piece" }, "geometry": { "type": "MultiPolygon", "coordinates": [ [ [ [ -8425032.993894424289465, 5688346.294128474779427 ], [ -8425027.455122638493776, 5688349.851551000960171 ], [ -8425021.394007561728358, 5688340.524806310422719 ], [ -8425026.846677055582404, 5688337.030577682889998 ], [ -8425032.993894424289465, 5688346.294128474779427 ] ] ] ] } },
{ "type": "Feature", "properties": { "id": 35, "Classroom": null, "elevator": null, "toilet": null, "accessible ": false, "layer": null, "path": null, "type": "piece" }, "geometry": { "type": "MultiPolygon", "coordinates": [ [ [ [ -8425033.007363427430391, 5688346.272216243669391 ], [ -8425047.634288324043155, 5688336.857590802013874 ], [ -8425045.344157367944717, 5688333.148993900977075 ], [ -8425039.985910307615995, 5688336.464778662659228 ], [ -8425038.752391736954451, 5688334.674809731543064 ], [ -8425033.207790091633797, 5688338.265804226510227 ], [ -8425034.188815291970968, 5688339.838661020621657 ], [ -8425030.377291155979037, 5688342.421491299755871 ], [ -8425033.007363427430391, 5688346.272216243669391 ] ] ] ] } },
{ "type": "Feature", "properties": { "id": null, "Classroom": "026", "elevator": null, "toilet": null, "accessible ": false, "layer": null, "path": null, "type": "piece" }, "geometry": { "type": "MultiPolygon", "coordinates": [ [ [ [ -8425091.827119512483478, 5688417.29379849229008 ], [ -8425082.459497187286615, 5688423.36752109695226 ], [ -8425087.714504834264517, 5688431.440431393682957 ], [ -8425088.457060262560844, 5688430.907314675860107 ], [ -8425089.256735337898135, 5688432.106827290728688 ], [ -8425097.88180223479867, 5688426.718540465459228 ], [ -8425091.827119512483478, 5688417.29379849229008 ] ] ] ] } },
{ "type": "Feature", "properties": { "id": null, "Classroom": "028", "elevator": null, "toilet": null, "accessible ": false, "layer": null, "path": null, "type": "piece" }, "geometry": { "type": "MultiPolygon", "coordinates": [ [ [ [ -8425080.031912133097649, 5688424.919271543622017 ], [ -8425072.872916208580136, 5688429.56500294059515 ], [ -8425075.519459914416075, 5688433.744257209822536 ], [ -8425079.413115942850709, 5688433.677617618814111 ], [ -8425081.487273160368204, 5688436.87155794724822 ], [ -8425082.906934428960085, 5688435.962403551675379 ], [ -8425085.248840009793639, 5688439.722780398093164 ], [ -8425088.314261138439178, 5688437.733112648129463 ], [ -8425080.031912133097649, 5688424.919271543622017 ] ] ] ] } },
{ "type": "Feature", "properties": { "id": null, "Classroom": "024", "elevator": null, "toilet": null, "accessible ": false, "layer": null, "path": null, "type": "piece" }, "geometry": { "type": "MultiPolygon", "coordinates": [ [ [ [ -8425088.837857915088534, 5688445.834582769311965 ], [ -8425084.877562297508121, 5688448.328807412646711 ], [ -8425081.069585742428899, 5688442.312204455956817 ], [ -8425087.029069051146507, 5688438.599427315406501 ], [ -8425088.090542515739799, 5688440.174977616406977 ], [ -8425089.794612023979425, 5688442.745361789129674 ], [ -8425087.733544712886214, 5688444.101953436620533 ], [ -8425088.837857915088534, 5688445.834582769311965 ] ] ] ] } },
{ "type": "Feature", "properties": { "id": null, "Classroom": "038", "elevator": null, "toilet": null, "accessible ": false, "layer": null, "path": null, "type": "piece" }, "geometry": { "type": "MultiPolygon", "coordinates": [ [ [ [ -8425011.826292064040899, 5688363.472809862345457 ], [ -8425001.668514603748918, 5688370.032049478031695 ], [ -8425006.200006701052189, 5688377.095845987088978 ], [ -8425016.405383868142962, 5688370.584206078201532 ], [ -8425011.826292064040899, 5688363.472809862345457 ] ] ] ] } },
{ "type": "Feature", "properties": { "id": null, "Classroom": "031C", "elevator": null, "toilet": null, "accessible ": false, "layer": null, "path": null, "type": "piece" }, "geometry": { "type": "MultiPolygon", "coordinates": [ [ [ [ -8425088.528459822759032, 5688404.170559288002551 ], [ -8425084.777602916583419, 5688406.512464869767427 ], [ -8425089.747012320905924, 5688414.128417978994548 ], [ -8425093.383629931136966, 5688411.729392748326063 ], [ -8425088.528459822759032, 5688404.170559288002551 ] ] ] ] } },
{ "type": "Feature", "properties": { "id": null, "Classroom": "03L", "elevator": null, "toilet": null, "accessible ": false, "layer": null, "path": null, "type": "piece" }, "geometry": { "type": "MultiPolygon", "coordinates": [ [ [ [ -8425140.507339797914028, 5688317.120215242728591 ], [ -8425136.242406057193875, 5688319.900038127787411 ], [ -8425130.911238880828023, 5688311.446330175735056 ], [ -8425135.1380928568542, 5688308.704587056301534 ], [ -8425140.507339797914028, 5688317.120215242728591 ] ] ] ] } },
{ "type": "Feature", "properties": { "id": null, "Classroom": "03", "elevator": null, "toilet": null, "accessible ": false, "layer": null, "path": null, "type": "piece" }, "geometry": { "type": "MultiPolygon", "coordinates": [ [ [ [ -8425136.204326286911964, 5688319.928597952239215 ], [ -8425132.424909558147192, 5688322.365702946670353 ], [ -8425127.969576988369226, 5688315.492305264808238 ], [ -8425131.853713074699044, 5688313.017120503820479 ], [ -8425136.204326286911964, 5688319.928597952239215 ] ] ] ] } },
{ "type": "Feature", "properties": { "id": null, "Classroom": "03D", "elevator": null, "toilet": null, "accessible ": false, "layer": null, "path": null, "type": "piece" }, "geometry": { "type": "MultiPolygon", "coordinates": [ [ [ [ -8425130.882679052650928, 5688311.45585011690855 ], [ -8425125.779990470036864, 5688314.787829602137208 ], [ -8425119.439709505066276, 5688305.039409621618688 ], [ -8425124.694717150181532, 5688301.764549784362316 ], [ -8425130.882679052650928, 5688311.45585011690855 ] ] ] ] } },
{ "type": "Feature", "properties": { "id": null, "Classroom": "038", "elevator": null, "toilet": null, "accessible ": false, "layer": null, "path": null, "type": "piece" }, "geometry": { "type": "MultiPolygon", "coordinates": [ [ [ [ -8425011.807252179831266, 5688363.501369679346681 ], [ -8425009.903263902291656, 5688360.569227732717991 ], [ -8424999.659806966781616, 5688367.038027903065085 ], [ -8425001.682794509455562, 5688370.046329380944371 ], [ -8425011.807252179831266, 5688363.501369679346681 ] ] ] ] } },
{ "type": "Feature", "properties": { "id": null, "Classroom": "039", "elevator": null, "toilet": null, "accessible ": false, "layer": null, "path": null, "type": "piece" }, "geometry": { "type": "MultiPolygon", "coordinates": [ [ [ [ -8425007.47091887332499, 5688351.063566254451871 ], [ -8425010.288226529955864, 5688355.194625821895897 ], [ -8424997.154872391372919, 5688363.239571291953325 ], [ -8424994.546408450230956, 5688359.393514971248806 ], [ -8425007.47091887332499, 5688351.063566254451871 ] ] ] ] } },
{ "type": "Feature", "properties": { "fid": 1, "id": null, "Classroom": null, "elevator": "elevator2", "toilet": null, "accessible ": null, "layer": "interieur_UCU", "path": "C:/Users/chmar/OneDrive/Documents/fall2025/gng2501/ucu floor fichier geojson/interieur_UCU.shp", "type": "elevator" }, "geometry": { "type": "MultiPolygon", "coordinates": [ [ [ [ -8425085.503621939569712, 5688326.405968152917922 ], [ -8425081.879970721900463, 5688328.746443640440702 ], [ -8425079.429401164874434, 5688324.875113054178655 ], [ -8425083.063550347462296, 5688322.590790711343288 ], [ -8425085.503621939569712, 5688326.405968152917922 ] ] ] ] } },
{ "type": "Feature", "properties": { "fid": 2, "id": null, "Classroom": null, "elevator": "elevator1", "toilet": null, "accessible ": null, "layer": "interieur_UCU", "path": "C:/Users/chmar/OneDrive/Documents/fall2025/gng2501/ucu floor fichier geojson/interieur_UCU.shp", "type": "elevator" }, "geometry": { "type": "MultiPolygon", "coordinates": [ [ [ [ -8425083.088829355314374, 5688322.599308139644563 ], [ -8425079.433345789089799, 5688324.890867379494011 ], [ -8425077.16759973578155, 5688321.216170004568994 ], [ -8425080.655869914218783, 5688318.9073755890131 ], [ -8425083.088829355314374, 5688322.599308139644563 ] ] ] ] } },
{ "type": "Feature", "properties": { "fid": 3, "id": null, "Classroom": null, "elevator": null, "toilet": "toilet", "accessible ": null, "layer": "interieur_UCU", "path": "C:/Users/chmar/OneDrive/Documents/fall2025/gng2501/ucu floor fichier geojson/interieur_UCU.shp", "type": "toilet" }, "geometry": { "type": "MultiPolygon", "coordinates": [ [ [ [ -8425059.447263048961759, 5688295.880879743024707 ], [ -8425056.532669380307198, 5688297.613366364501417 ], [ -8425054.667113261297345, 5688294.776434476487339 ], [ -8425057.538572214543819, 5688292.931084818206728 ], [ -8425059.447263048961759, 5688295.880879743024707 ] ] ] ] } },
{ "type": "Feature", "properties": { "fid": 4, "id": null, "Classroom": "Classroom 014", "elevator": null, "toilet": null, "accessible ": null, "layer": "interieur_UCU", "path": "C:/Users/chmar/OneDrive/Documents/fall2025/gng2501/ucu floor fichier geojson/interieur_UCU.shp", "type": "piece" }, "geometry": { "type": "MultiPolygon", "coordinates": [ [ [ [ -8425103.694186937063932, 5688270.579881354235113 ], [ -8425091.98176590912044, 5688278.041127343662083 ], [ -8425081.13693162240088, 5688275.351608440279961 ], [ -8425074.109479006379843, 5688263.118635365739465 ], [ -8425076.018169840797782, 5688254.442767936736345 ], [ -8425089.465764354914427, 5688246.200693879276514 ], [ -8425098.141631783917546, 5688248.716695433482528 ], [ -8425106.296947166323662, 5688261.643737902864814 ], [ -8425103.694186937063932, 5688270.579881354235113 ] ] ] ] } },
{ "type": "Feature", "properties": { "fid": 5, "id": null, "Classroom": null, "elevator": null, "toilet": "Wemen Toilet", "accessible ": null, "layer": "interieur_UCU", "path": "C:/Users/chmar/OneDrive/Documents/fall2025/gng2501/ucu floor fichier geojson/interieur_UCU.shp", "type": "toilet" }, "geometry": { "type": "MultiPolygon", "coordinates": [ [ [ [ -8425061.450796840712428, 5688297.20523111242801 ], [ -8425059.317125041037798, 5688298.506611227057874 ], [ -8425058.060603231191635, 5688296.703805564902723 ], [ -8425059.413446962833405, 5688295.92297749593854 ], [ -8425057.495192881673574, 5688292.963619321584702 ], [ -8425055.078822197392583, 5688294.454786870628595 ], [ -8425048.607272356748581, 5688284.998347244225442 ], [ -8425053.033143417909741, 5688282.347970967181027 ], [ -8425061.656341066583991, 5688295.649283050559461 ], [ -8425061.450796840712428, 5688297.20523111242801 ] ] ] ] } },
{ "type": "Feature", "properties": { "fid": 6, "id": null, "Classroom": null, "elevator": null, "toilet": "Men toilet", "accessible ": null, "layer": "interieur_UCU", "path": "C:/Users/chmar/OneDrive/Documents/fall2025/gng2501/ucu floor fichier geojson/interieur_UCU.shp", "type": "toilet" }, "geometry": { "type": "MultiPolygon", "coordinates": [ [ [ [ -8425056.545535285025835, 5688297.619799316860735 ], [ -8425058.089443793520331, 5688296.654856497421861 ], [ -8425059.309730196371675, 5688298.563990718685091 ], [ -8425055.837910547852516, 5688300.726915193721652 ], [ -8425053.330776516348124, 5688296.824380327016115 ], [ -8425050.408498952165246, 5688298.668370512314141 ], [ -8425043.83402187936008, 5688288.253421020694077 ], [ -8425048.607272356748581, 5688284.998347244225442 ], [ -8425055.065956292673945, 5688294.480518678203225 ], [ -8425054.61564964428544, 5688294.776434476487339 ], [ -8425056.545535285025835, 5688297.619799316860735 ] ] ] ] } },
{ "type": "Feature", "properties": { "fid": 7, "id": null, "Classroom": "Classroom 020", "elevator": null, "toilet": null, "accessible ": null, "layer": "interieur_UCU", "path": "C:/Users/chmar/OneDrive/Documents/fall2025/gng2501/ucu floor fichier geojson/interieur_UCU.shp", "type": "piece" }, "geometry": { "type": "MultiPolygon", "coordinates": [ [ [ [ -8425039.12404359690845, 5688386.207504511810839 ], [ -8425040.893231548368931, 5688388.948608892038465 ], [ -8425036.195938339456916, 5688391.976956352591515 ], [ -8425035.805524306371808, 5688392.258922043256462 ], [ -8425031.847159795463085, 5688386.164125174283981 ], [ -8425036.890007738023996, 5688382.845605881884694 ], [ -8425039.12404359690845, 5688386.207504511810839 ] ] ] ] } },
{ "type": "Feature", "properties": { "fid": 8, "id": null, "Classroom": null, "elevator": "elevator 3", "toilet": null, "accessible ": null, "layer": "interieur_UCU", "path": "C:/Users/chmar/OneDrive/Documents/fall2025/gng2501/ucu floor fichier geojson/interieur_UCU.shp", "type": "elevator" }, "geometry": { "type": "MultiPolygon", "coordinates": [ [ [ [ -8425085.236278984695673, 5688439.737606544978917 ], [ -8425081.089428354054689, 5688442.321818272583187 ], [ -8425078.702690305188298, 5688438.637507073581219 ], [ -8425082.915484447032213, 5688435.963604213669896 ], [ -8425085.236278984695673, 5688439.737606544978917 ] ] ] ] } },
{ "type": "Feature", "properties": { "fid": 9, "id": null, "Classroom": "035A", "elevator": null, "toilet": null, "accessible ": false, "layer": "UCU_Floor", "path": "UCU_floor0_new_version.geojson.gpkg|layername=UCU_Floor", "type": "piece" }, "geometry": { "type": "MultiPolygon", "coordinates": [ [ [ [ -8425039.980683574452996, 5688336.552025587297976 ], [ -8425043.752001758664846, 5688334.133235586807132 ], [ -8425040.123816758394241, 5688328.530134284868836 ], [ -8425036.352498574182391, 5688330.97465609293431 ], [ -8425039.980683574452996, 5688336.552025587297976 ] ] ] ] } },
{ "type": "Feature", "properties": { "fid": 10, "id": null, "Classroom": "035B", "elevator": null, "toilet": null, "accessible ": false, "layer": "UCU_Floor", "path": "UCU_floor0_new_version.geojson.gpkg|layername=UCU_Floor", "type": "piece" }, "geometry": { "type": "MultiPolygon", "coordinates": [ [ [ [ -8425038.745556766167283, 5688334.680036518722773 ], [ -8425033.189418083056808, 5688338.285317724570632 ], [ -8425032.311123410239816, 5688336.968698063865304 ], [ -8425030.794427936896682, 5688334.551377476193011 ], [ -8425036.326766766607761, 5688330.97465609293431 ], [ -8425038.745556766167283, 5688334.680036518722773 ] ] ] ] } },
{ "type": "Feature", "properties": { "fid": 11, "id": null, "Classroom": "035C", "elevator": null, "toilet": null, "accessible ": false, "layer": "UCU_Floor", "path": "UCU_floor0_new_version.geojson.gpkg|layername=UCU_Floor", "type": "piece" }, "geometry": { "type": "MultiPolygon", "coordinates": [ [ [ [ -8425034.242490276694298, 5688339.877861836925149 ], [ -8425030.382719000801444, 5688342.425310879014432 ], [ -8425026.869723994284868, 5688337.082141027785838 ], [ -8425030.768696129322052, 5688334.551377476193011 ], [ -8425034.242490276694298, 5688339.877861836925149 ] ] ] ] } },
{ "type": "Feature", "properties": { "fid": 12, "id": null, "Classroom": "Pivic", "elevator": null, "toilet": null, "accessible ": true, "layer": "UCU_Floor", "path": "UCU_floor0_new_version.geojson.gpkg|layername=UCU_Floor", "type": "piece" }, "geometry": { "type": "MultiPolygon", "coordinates": [ [ [ [ -8425012.116351442411542, 5688355.54210027307272 ], [ -8425025.599819099530578, 5688346.896212615072727 ], [ -8425039.417800266295671, 5688368.716786230914295 ], [ -8425031.672525905072689, 5688373.708757081069052 ], [ -8425032.727530054748058, 5688375.355592825450003 ], [ -8425027.220923034474254, 5688379.022375537082553 ], [ -8425012.116351442411542, 5688355.54210027307272 ] ] ] ] } },
{ "type": "Feature", "properties": { "fid": 13, "id": null, "Classroom": "030B", "elevator": null, "toilet": null, "accessible ": false, "layer": "UCU_Floor", "path": "UCU_floor0_new_version.geojson.gpkg|layername=UCU_Floor", "type": "piece" }, "geometry": { "type": "MultiPolygon", "coordinates": [ [ [ [ -8425074.721841536462307, 5688385.957097928971052 ], [ -8425071.093656538054347, 5688388.350156119093299 ], [ -8425068.520475687459111, 5688384.43892122618854 ], [ -8425072.148660687729716, 5688382.071594843640924 ], [ -8425074.721841536462307, 5688385.957097928971052 ] ] ] ] } },
{ "type": "Feature", "properties": { "fid": 14, "id": null, "Classroom": "07A", "elevator": null, "toilet": null, "accessible ": true, "layer": "UCU_Floor", "path": "UCU_floor0_new_version.geojson.gpkg|layername=UCU_Floor", "type": "piece" }, "geometry": { "type": "MultiPolygon", "coordinates": [ [ [ [ -8425069.758818954229355, 5688309.327772189863026 ], [ -8425060.907076824456453, 5688314.853678064420819 ], [ -8425058.764903768897057, 5688311.30912144575268 ], [ -8425067.365760764107108, 5688305.699587190523744 ], [ -8425069.758818954229355, 5688309.327772189863026 ] ] ] ] } },
{ "type": "Feature", "properties": { "fid": 15, "id": null, "Classroom": "08B", "elevator": null, "toilet": null, "accessible ": false, "layer": "UCU_Floor", "path": "UCU_floor0_new_version.geojson.gpkg|layername=UCU_Floor", "type": "piece" }, "geometry": { "type": "MultiPolygon", "coordinates": [ [ [ [ -8425067.352894859388471, 5688305.693154239095747 ], [ -8425058.726306056603789, 5688311.30912144575268 ], [ -8425056.333247864618897, 5688307.680936446413398 ], [ -8425059.581888686865568, 5688305.693154239095747 ], [ -8425058.443256160244346, 5688303.975556021556258 ], [ -8425063.801905281841755, 5688300.366669875569642 ], [ -8425067.352894859388471, 5688305.693154239095747 ] ] ] ] } },
{ "type": "Feature", "properties": { "fid": 16, "id": null, "Classroom": "08C", "elevator": null, "toilet": null, "accessible ": false, "layer": "UCU_Floor", "path": "UCU_floor0_new_version.geojson.gpkg|layername=UCU_Floor", "type": "piece" }, "geometry": { "type": "MultiPolygon", "coordinates": [ [ [ [ -8425056.346113769337535, 5688307.668070542626083 ], [ -8425059.581888686865568, 5688305.686721286736429 ], [ -8425057.401117915287614, 5688302.238658947870135 ], [ -8425054.223239567130804, 5688304.393697909079492 ], [ -8425056.346113769337535, 5688307.668070542626083 ] ] ] ] } },
{ "type": "Feature", "properties": { "fid": 17, "id": null, "Classroom": "08D", "elevator": null, "toilet": null, "accessible ": false, "layer": "UCU_Floor", "path": "UCU_floor0_new_version.geojson.gpkg|layername=UCU_Floor", "type": "piece" }, "geometry": { "type": "MultiPolygon", "coordinates": [ [ [ [ -8425057.401117917150259, 5688302.245091900229454 ], [ -8425056.301083100959659, 5688300.443865300156176 ], [ -8425055.831477595493197, 5688300.726915193721652 ], [ -8425053.335492169484496, 5688296.828546204604208 ], [ -8425050.421364856883883, 5688298.655504608526826 ], [ -8425054.216806614771485, 5688304.40656381379813 ], [ -8425057.401117917150259, 5688302.245091900229454 ] ] ] ] } },
{ "type": "Feature", "properties": { "fid": 18, "id": null, "Classroom": "05", "elevator": null, "toilet": null, "accessible ": false, "layer": "UCU_Floor", "path": "UCU_floor0_new_version.geojson.gpkg|layername=UCU_Floor", "type": "piece" }, "geometry": { "type": "MultiPolygon", "coordinates": [ [ [ [ -8425067.452605629339814, 5688291.791544692590833 ], [ -8425061.508557863533497, 5688295.439028549939394 ], [ -8425058.423957299441099, 5688290.710808731615543 ], [ -8425064.326190894469619, 5688286.883202220313251 ], [ -8425067.452605629339814, 5688291.791544692590833 ] ] ] ] } },
{ "type": "Feature", "properties": { "fid": 19, "id": null, "Classroom": "07B", "elevator": null, "toilet": null, "accessible ": false, "layer": "UCU_Floor", "path": "UCU_floor0_new_version.geojson.gpkg|layername=UCU_Floor", "type": "piece" }, "geometry": { "type": "MultiPolygon", "coordinates": [ [ [ [ -8425061.473176617175341, 5688314.815080353058875 ], [ -8425055.628839619457722, 5688318.559058492071927 ], [ -8425058.115175606682897, 5688322.40596386231482 ], [ -8425063.866234807297587, 5688318.713449341244996 ], [ -8425061.473176617175341, 5688314.815080353058875 ] ] ] ] } },
{ "type": "Feature", "properties": { "fid": 20, "id": null, "Classroom": "07C", "elevator": null, "toilet": null, "accessible ": false, "layer": "UCU_Floor", "path": "UCU_floor0_new_version.geojson.gpkg|layername=UCU_Floor", "type": "piece" }, "geometry": { "type": "MultiPolygon", "coordinates": [ [ [ [ -8425058.128041511401534, 5688322.444561574608088 ], [ -8425052.06820061430335, 5688326.548785030841827 ], [ -8425049.46928795427084, 5688322.560354712419212 ], [ -8425055.64492199011147, 5688318.597656203433871 ], [ -8425058.128041511401534, 5688322.444561574608088 ] ] ] ] } },
{ "type": "Feature", "properties": { "fid": 21, "id": null, "Classroom": "07G", "elevator": null, "toilet": null, "accessible ": false, "layer": "UCU_Floor", "path": "UCU_floor0_new_version.geojson.gpkg|layername=UCU_Floor", "type": "piece" }, "geometry": { "type": "MultiPolygon", "coordinates": [ [ [ [ -8425062.50244895555079, 5688322.103615111671388 ], [ -8425058.629811774939299, 5688324.599600536748767 ], [ -8425060.945674540475011, 5688328.202053727582097 ], [ -8425064.77971400693059, 5688325.796129632741213 ], [ -8425062.50244895555079, 5688322.103615111671388 ] ] ] ] } },
{ "type": "Feature", "properties": { "fid": 22, "id": null, "Classroom": "046", "elevator": null, "toilet": null, "accessible ": false, "layer": "UCU_Floor", "path": "UCU_floor0_new_version.geojson.gpkg|layername=UCU_Floor", "type": "piece" }, "geometry": { "type": "MultiPolygon", "coordinates": [ [ [ [ -8425060.958540445193648, 5688328.227785536088049 ], [ -8425056.313949026167393, 5688331.212675324641168 ], [ -8425053.959488531574607, 5688327.597356228157878 ], [ -8425058.655543582513928, 5688324.599600536748767 ], [ -8425060.958540445193648, 5688328.227785536088049 ] ] ] ] } },
{ "type": "Feature", "properties": { "fid": 23, "id": null, "Classroom": "036", "elevator": null, "toilet": null, "accessible ": false, "layer": "UCU_Floor", "path": "UCU_floor0_new_version.geojson.gpkg|layername=UCU_Floor", "type": "piece" }, "geometry": { "type": "MultiPolygon", "coordinates": [ [ [ [ -8425056.301083106547594, 5688331.231974180787802 ], [ -8425053.020277520641685, 5688333.361281333491206 ], [ -8425050.665817042812705, 5688329.733096334151924 ], [ -8425053.972354436293244, 5688327.597356228157878 ], [ -8425056.301083106547594, 5688331.231974180787802 ] ] ] ] } },
{ "type": "Feature", "properties": { "fid": 24, "id": null, "Classroom": "035G", "elevator": null, "toilet": null, "accessible ": false, "layer": "UCU_Floor", "path": "UCU_floor0_new_version.geojson.gpkg|layername=UCU_Floor", "type": "piece" }, "geometry": { "type": "MultiPolygon", "coordinates": [ [ [ [ -8425051.56643034145236, 5688334.422718434594572 ], [ -8425047.642329545691609, 5688336.854374338872731 ], [ -8425045.249271351844072, 5688333.123262105509639 ], [ -8425049.121908532455564, 5688330.69160620123148 ], [ -8425051.56643034145236, 5688334.422718434594572 ] ] ] ] } },
{ "type": "Feature", "properties": { "fid": 25, "id": null, "Classroom": "07D", "elevator": null, "toilet": null, "accessible ": false, "layer": "UCU_Floor", "path": "UCU_floor0_new_version.geojson.gpkg|layername=UCU_Floor", "type": "piece" }, "geometry": { "type": "MultiPolygon", "coordinates": [ [ [ [ -8425052.042468810454011, 5688326.561650934629142 ], [ -8425046.703118545934558, 5688329.958249659277499 ], [ -8425044.181401312351227, 5688326.00841705314815 ], [ -8425049.482153864577413, 5688322.547488807700574 ], [ -8425052.042468810454011, 5688326.561650934629142 ] ] ] ] } },
{ "type": "Feature", "properties": { "fid": 26, "id": null, "Classroom": "07E", "elevator": null, "toilet": null, "accessible ": false, "layer": "UCU_Floor", "path": "UCU_floor0_new_version.geojson.gpkg|layername=UCU_Floor", "type": "piece" }, "geometry": { "type": "MultiPolygon", "coordinates": [ [ [ [ -8425046.722417403012514, 5688329.996847369708121 ], [ -8425042.759718893095851, 5688332.595760028809309 ], [ -8425040.109342616051435, 5688328.581597901880741 ], [ -8425044.174968359991908, 5688325.982685242779553 ], [ -8425046.722417403012514, 5688329.996847369708121 ] ] ] ] } },
{ "type": "Feature", "properties": { "fid": 27, "id": null, "Classroom": "08A", "elevator": null, "toilet": null, "accessible ": false, "layer": null, "path": null, "type": "piece" }, "geometry": { "type": "MultiPolygon", "coordinates": [ [ [ [ -8425071.791631814092398, 5688302.547440643422306 ], [ -8425069.758818941190839, 5688299.047914686612785 ], [ -8425066.79966096393764, 5688298.378887664526701 ], [ -8425063.789039367809892, 5688300.334505111910403 ], [ -8425069.784550754353404, 5688309.353503993712366 ], [ -8425071.637240963056684, 5688308.208438514731824 ], [ -8425072.640781493857503, 5688303.911226494237781 ], [ -8425071.791631814092398, 5688302.547440643422306 ] ] ] ] } },
{ "type": "Feature", "properties": { "fid": null, "id": null, "Classroom": null, "elevator": null, "toilet": null, "accessible ": false, "layer": null, "path": null, "type": "corridor" }, "geometry": { "type": "MultiPolygon", "coordinates": [ [ [ [ -8425035.797091254964471, 5688392.247937227599323 ], [ -8425031.217285430058837, 5688395.253434800542891 ], [ -8425027.332628702744842, 5688389.201548530720174 ], [ -8425031.78976115770638, 5688386.114268710836768 ], [ -8425035.797091254964471, 5688392.247937227599323 ] ] ] ] } },
{ "type": "Feature", "properties": { "fid": null, "id": null, "Classroom": null, "elevator": null, "toilet": null, "accessible ": false, "layer": null, "path": null, "type": "corridor" }, "geometry": { "type": "MultiPolygon", "coordinates": [ [ [ [ -8425081.027785155922174, 5688275.257155216298997 ], [ -8425081.082093678414822, 5688275.270572615787387 ], [ -8425076.4121996127069, 5688267.167102009057999 ], [ -8425071.856033960357308, 5688269.98411706276238 ], [ -8425076.54573467746377, 5688277.340685739181936 ], [ -8425080.259159822016954, 5688275.038004350848496 ], [ -8425081.027785155922174, 5688275.257155216298997 ] ] ] ] } },
{ "type": "Feature", "properties": { "fid": null, "id": null, "Classroom": null, "elevator": null, "toilet": null, "accessible ": false, "layer": null, "path": null, "type": null }, "geometry": { "type": "MultiPolygon", "coordinates": [ [ [ [ -8425099.738029832020402, 5688276.262821281328797 ], [ -8425092.24984285235405, 5688280.99085743073374 ], [ -8425090.057056356221437, 5688277.567503689788282 ], [ -8425091.9693553019315, 5688278.056919317692518 ], [ -8425098.392456302419305, 5688273.97675191052258 ], [ -8425099.738029832020402, 5688276.262821281328797 ] ] ] ] } }
]
}
