{
"type": "FeatureCollection",
"name": "ucu_floor0_mur",
"crs": { "type": "name", "properties": { "name": "urn:ogc:def:crs:EPSG::3857" } },
"features": [
{ "type": "Feature", "properties": { "fid": 1, "Mur": "1" }, "geometry": { "type": "LineString", "coordinates": [ [ -8425079.858173148706555, 5688273.189850683324039 ], [ -8425074.106938559561968, 5688263.117752694524825 ], [ -8425076.018364293500781, 5688254.442408611066639 ], [ -8425089.465764936059713, 5688246.200686693191528 ], [ -8425098.141629325225949, 5688248.716628612950444 ], [ -8425106.29601663351059, 5688261.637308269739151 ], [ -8425103.706592673435807, 5688270.58129287045449 ], [ -8425091.968505382537842, 5688278.054446583613753 ], [ -8425090.045477293431759, 5688277.559409650042653 ], [ -8425092.44152745231986, 5688281.35756862256676 ], [ -8425089.430785674601793, 5688283.132791260257363 ] ] } },
{ "type": "Feature", "properties": { "fid": 2, "Mur": null }, "geometry": { "type": "LineString", "coordinates": [ [ -8425096.560705227777362, 5688289.630317967385054 ], [ -8425091.724574606865644, 5688281.823965391144156 ] ] } },
{ "type": "Feature", "properties": { "fid": 3, "Mur": null }, "geometry": { "type": "LineString", "coordinates": [ [ -8425096.541665343567729, 5688289.611278083175421 ], [ -8425092.619449170306325, 5688292.048383277840912 ] ] } },
{ "type": "Feature", "properties": { "fid": 4, "Mur": null }, "geometry": { "type": "LineString", "coordinates": [ [ -8425099.557107023894787, 5688294.629477597773075 ], [ -8425095.672970620915294, 5688297.009463139809668 ] ] } },
{ "type": "Feature", "properties": { "fid": 5, "Mur": null }, "geometry": { "type": "LineString", "coordinates": [ [ -8425099.55725577659905, 5688294.629180097952485 ], [ -8425109.800416046753526, 5688310.647226543165743 ], [ -8425124.603926112875342, 5688301.579481628723443 ], [ -8425130.887087943032384, 5688311.446901684626937 ], [ -8425135.13952711224556, 5688308.70337335113436 ], [ -8425140.508179495111108, 5688317.120192223228514 ], [ -8425115.200603239238262, 5688333.575412286445498 ] ] } },
{ "type": "Feature", "properties": { "fid": 6, "Mur": null }, "geometry": { "type": "LineString", "coordinates": [ [ -8425115.191083300858736, 5688333.580172238871455 ], [ -8425081.774896306917071, 5688355.210670837201178 ], [ -8425084.973596874624491, 5688360.503758681938052 ], [ -8425075.796372624114156, 5688366.444202594459057 ], [ -8425079.204511919990182, 5688371.746810381300747 ], [ -8425069.556050531566143, 5688377.977612528949976 ], [ -8425078.876073913648725, 5688392.524084161035717 ], [ -8425080.539683805778623, 5688391.503070363774896 ], [ -8425082.560291532427073, 5688394.973089284263551 ], [ -8425092.70616989582777, 5688410.607214308343828 ], [ -8425101.540676226839423, 5688404.999968372285366 ] ] } },
{ "type": "Feature", "properties": { "fid": 7, "Mur": null }, "geometry": { "type": "LineString", "coordinates": [ [ -8425105.396252805367112, 5688410.626254191622138 ], [ -8425096.590306298807263, 5688416.433418916538358 ], [ -8425092.953688390552998, 5688418.880044052377343 ], [ -8425097.904058314859867, 5688426.73399634193629 ], [ -8425089.298030596226454, 5688432.141323491930962 ], [ -8425091.506657177582383, 5688435.530422903597355 ], [ -8425090.00250631570816, 5688436.482417120598257 ], [ -8425092.744249658659101, 5688440.690231557004154 ], [ -8425093.467765264213085, 5688440.233274333178997 ], [ -8425097.313821898773313, 5688446.287957552820444 ], [ -8425091.563776832073927, 5688450.019774882122874 ], [ -8425088.850593313574791, 5688445.835760299116373 ], [ -8425079.768568485975266, 5688451.609605223871768 ], [ -8425073.594885990023613, 5688441.913544127717614 ] ] } },
{ "type": "Feature", "properties": { "fid": 8, "Mur": null }, "geometry": { "type": "LineString", "coordinates": [ [ -8425073.613925872370601, 5688441.93734398111701 ], [ -8425072.8808903247118, 5688440.794950921088457 ], [ -8425074.232722112908959, 5688439.909596299752593 ], [ -8425044.054505445063114, 5688393.233319859020412 ], [ -8425034.039526285603642, 5688399.630720994435251 ], [ -8425027.128048270940781, 5688389.035025360994041 ] ] } },
{ "type": "Feature", "properties": { "fid": 9, "Mur": null }, "geometry": { "type": "LineString", "coordinates": [ [ -8425029.755552310496569, 5688382.856582894921303 ], [ -8425025.052700880914927, 5688385.864884620532393 ], [ -8425025.423978624865413, 5688386.426561207510531 ] ] } },
{ "type": "Feature", "properties": { "fid": 10, "Mur": null }, "geometry": { "type": "LineString", "coordinates": [ [ -8425025.052700880914927, 5688385.855364677496254 ], [ -8425024.386304927989841, 5688384.922410345636308 ] ] } },
{ "type": "Feature", "properties": { "fid": 11, "Mur": null }, "geometry": { "type": "LineString", "coordinates": [ [ -8425027.375566771253943, 5688379.391323948279023 ], [ -8425022.691755225881934, 5688382.361545903608203 ] ] } },
{ "type": "Feature", "properties": { "fid": 12, "Mur": null }, "geometry": { "type": "LineString", "coordinates": [ [ -8425022.653675457462668, 5688382.36154590267688 ], [ -8425015.437559293583035, 5688371.261293335817754 ], [ -8425006.165135623887181, 5688377.125577710568905 ], [ -8425000.810168154537678, 5688368.767068488523364 ] ] } },
{ "type": "Feature", "properties": { "fid": 13, "Mur": null }, "geometry": { "type": "LineString", "coordinates": [ [ -8424999.686814978718758, 5688367.115358521230519 ], [ -8424998.24930371157825, 5688365.011451304890215 ] ] } },
{ "type": "Feature", "properties": { "fid": 14, "Mur": null }, "geometry": { "type": "LineString", "coordinates": [ [ -8424997.135470479726791, 5688363.469220673665404 ], [ -8424996.426234787330031, 5688362.464866775088012 ] ] } },
{ "type": "Feature", "properties": { "fid": 15, "Mur": null }, "geometry": { "type": "LineString", "coordinates": [ [ -8424994.907804012298584, 5688360.203880512155592 ], [ -8424994.317567598074675, 5688359.299486006610096 ], [ -8425014.085727507248521, 5688346.599883156828582 ], [ -8425013.447891380637884, 5688345.70976856444031 ], [ -8425061.390320129692554, 5688314.831836146302521 ], [ -8425061.276080824434757, 5688314.650957245379686 ], [ -8425060.876243252307177, 5688314.869915914721787 ], [ -8425043.654667872935534, 5688288.195037963800132 ], [ -8425053.060370733961463, 5688282.216514282859862 ], [ -8425058.448658000677824, 5688290.575023504905403 ], [ -8425064.389101913198829, 5688286.786086522974074 ] ] } },
{ "type": "Feature", "properties": { "fid": 16, "Mur": null }, "geometry": { "type": "LineString", "coordinates": [ [ -8425069.301392070949078, 5688283.777784798294306 ], [ -8425077.01254522614181, 5688278.846454755403101 ], [ -8425077.122024556621909, 5688278.765535248443484 ], [ -8425076.322349414229393, 5688277.51842282526195 ], [ -8425076.312829472124577, 5688277.500572932884097 ], [ -8425076.547258047387004, 5688277.356583807617426 ] ] } },
{ "type": "Feature", "properties": { "fid": 17, "Mur": null }, "geometry": { "type": "LineString", "coordinates": [ [ -8425075.68927326053381, 5688275.954772324301302 ], [ -8425071.851546576246619, 5688269.982198607176542 ], [ -8425076.38303904607892, 5688267.183335609734058 ] ] } },
{ "type": "Feature", "properties": { "fid": 18, "Mur": null }, "geometry": { "type": "LineString", "coordinates": [ [ -8425080.533733833581209, 5688274.32329223677516 ], [ -8425081.095410421490669, 5688275.280046423897147 ], [ -8425080.257655510678887, 5688275.042047870345414 ], [ -8425076.578197862952948, 5688277.34111390542239 ] ] } },
{ "type": "Feature", "properties": { "fid": 19, "Mur": null }, "geometry": { "type": "LineString", "coordinates": [ [ -8425077.044675044715405, 5688344.390066588297486 ], [ -8425071.980065811425447, 5688347.66492669377476 ] ] } },
{ "type": "Feature", "properties": { "fid": 20, "Mur": null }, "geometry": { "type": "LineString", "coordinates": [ [ -8425093.875932794064283, 5688279.921018235385418 ], [ -8425099.778296938166022, 5688276.265360443852842 ], [ -8425098.445505034178495, 5688274.056733860634267 ] ] } }
]
}
